X,Y,OBJECTID,AUN,SCHOOL_NUM,LOCATION_ID,FACIL_NAME,FACILNAME_LABEL,FACIL_ADDRESS,ZIPCODE,FACIL_TELEPHONE,ACTIVE,GRADE_LEVEL,GRADE_ORG,ENROLLMENT,TYPE,TYPE_SPECIFIC
-75.210184742915004,40.079267788964799,490,226515302,,,Our Mother of Consolation,Our Mother Consolation,7-29 E CHESTNUT HILL AVE,19118,215-247-1060,Open,Elem/Middle,pre K-8,161,Private,Archdiocese
-75.18871677198355,40.061750090378688,491,226512152,,,Holy Cross School,Holy Cross School,148-54 E MOUNT AIRY AVE,19119,(215) 242-0414,Open,Elem/Middle,K-8,150,Private,Archdiocese
-75.030233257835903,40.055650040922139,492,226518092,,,St Jerome School,St Jerome School,2950 HOLME AVE,19136,(215) 624-0637,Open,Elem/Middle,K-8,534,Private,Archdiocese
-75.062448075507334,40.053400096487138,493,226515552,,,Resurrection Regional Catholic School,Resurrection Sch,2020 Shelmire Ave.,19152,(215)742-1127,Open,Elem/Middle,pre K-8,559,Private,Archdiocese
-75.023397109018262,40.048201567923158,494,226511602,,,Father Judge High School,Father Judge HS,3301 SOLLY AVE,19136,215.338.9494,Open,High School,9-12,1136,Private,Archdiocese
-75.129065538178992,40.044446130587922,495,226517902,,,St Helena Incarnation Regional Catholic School,St Helena School,6106 N 5th St,19120,(215) 549-2947,Open,Elem/Middle,K-8,495,Private,Archdiocese
-75.237895523918723,39.97508106864283,496,226519282,,,St Rose of Lima School,St Rose of Lima Sch,1508 N  Wanamaker St,19131,(215) 473-6030,Open,Elem/Middle,pre K-8,202,Private,Archdiocese
-75.234536126213598,40.064420771686798,497,226512702,,,Immaculate Heart of Mary School,Immaculate Heart of Mary Sch,815-23 CATHEDRAL RD,19128,215-482-2029,Open,Elem/Middle,pre K-8,410,Private,Archdiocese
-75.154086869040142,40.061700347144978,498,226516302,,,St Athanasius Immaculate Conception School,St Athanasius Immaculate Con,7105 Limekiln Pike,19138,(215) 424-5045,Open,Elem/Middle,pre K-8,281,Private,Archdiocese
-75.081283165884855,40.077088374724902,499,226517052,,,St Cecilia School,St Cecilia School,535 RHAWN ST,19111,(215) 725-8588,Open,Elem/Middle,K-8,669,Private,Archdiocese
-75.16956467831875,39.995555316701321,500,226517252,,,St Martin de Porres School,St Martin de Porres School,2300-36 W LEHIGH AVE,19132,(215) 223-6872,Open,Elem/Middle,K-8,398,Private,Archdiocese
-75.102018973530008,39.984962673838304,501,226514552,,,Our Lady of Port Richmond School,Our Lady of Port Richmond Sch,2639 E ALLEGHENY AVE,19134,(215) 739-1920,Open,Elem/Middle,pre K-8,424,Private,Archdiocese
-74.973706753544064,40.102260991469286,502,226516202,,,St Anselm Elementary School,St Anselm Elem,12656 DUNKS FERRY RD,19154,(215) 632-1133,Open,Elem/Middle,pre K-8,373,Private,Archdiocese
-75.010035469466217,40.124454772125979,503,226517152,,,St Christopher School,St. Christopher Sch,13301 PROCTOR RD,19116,215-673-5787,Open,Elem/Middle,pre K-8,550,Private,Archdiocese
-74.986695741969982,40.085186028838649,504,226510452,,,Archbishop Ryan High School,Archbishop Ryan HS,11201 ACADEMY RD,19154,(215) 651-4471,Open,High School,9-12,1616,Private,Archdiocese
-75.174399548915815,39.919323025161326,505,226519022,,,St Monica Senior School,St Monica Sr,2500 S 16TH ST,19145,(215) 467-5338,Open,Elem/Middle,6-8,452,Private,Archdiocese
-75.177535822926345,40.005178883443385,506,226514102,,,Mercy Career and Technical High School,Mercy Vocational HS,2901 W ALLEGHENY AVE,19129,(215) 226-1225 ,Open,High School,9-12,371,Private,Archdiocese
-75.153486449948289,39.972244975105802,507,226518662,,,St Malachy School,St Malachy School,1012 W Thompson St,19122,(215) 232-0696,Open,Elem/Middle,K-8,194,Private,Archdiocese
-75.086759007299293,40.031711660354745,508,226518752,,,St Martin of Tours School,St Martin of Tours School,5400 E ROOSEVELT BLV,19124,(215) 533-3050,Open,Elem/Middle,pre K-8,433,Private,Archdiocese
-74.992932196987041,40.059910013187142,509,226518332,,,St Katherine Siena School,St Katherine Siena Sch,9720-88 FRANKFORD AVE,19114,(215) 637-2181,Open,Elem/Middle,K-8,549,Private,Archdiocese
-75.209523114039769,39.963914115985524,510,226518062,,,Our Mother of Sorrows/St Ignatius of Loyola School,Our Mother of Sorrows/St Ignatius of Loyola School,632-44 N 43RD ST,19104,215-473-5828,Open,Elem/Middle,pre K-8,274,Private,Archdiocese
-75.249135909526487,39.969512005494423,511,226517352,,,St Frances Cabrini Regional Catholic School,St Frances Cabrini,405 N 65th St,19151,(215)748-2994,Open,Elem/Middle,pre K-8,267,Private,Archdiocese
-75.178286247203474,39.913561621712894,512,226519242,,,St Pio Regional Catholic School,St Pio Catholic Regional School,1826 Pollock Street,19145,(215)467-5430,Open,Elem/Middle,pre K-8,266,Private,Archdiocese
-75.066532764068526,40.035032106275494,513,300518675,,,"Sylvan Learning Center
",Sylvan Lrn Ctr,6537 Roosevelt Blvd,19149,(215)743-6200,Open,Tutoring,Ungraded,,Private,Private
-74.977272263272937,40.092660686134309,514,300513270,,,Delta School,Delta School,3515 WOODHAVEN RD,19154,215-637-8235,Open,Elem/Mid/High,K-12,56,Private,Private
-75.215267015488777,40.082674039204882,515,,,,Norwood Fontbonne Academy (Annex),Norwood Fontbonne Acad,40 E Sunset Avenue,19118,215-247-3811,Open,Elementary School,K-6,258,Private,Private
-75.214863077276661,40.080508425000041,516,226514502,,,Norwood Fontbonne MS,Norwood Fontbonne MS,8891 Germantown Ave,19118,215-247-3811,Open,Middle School,7-8,91,Private,Private
-75.211793370471653,40.060720892508236,517,226511002,,,Springside Chestnut Hill Academy,Springside Chestnut Hill Academy,500 W Willow Grove Ave,19118,(215) 247-4700,Open,Elem/Mid/High,pre K-12,491,Private,Private
-75.212832282801969,40.060821275667806,518,226515802,,,Springside Chestnut Hill Academy,Springside Chestnut Hill Academy,8000 CHEROKEE ST,19118,(215) 247-4700,Open,Elem/Mid/High,pre K-12,404,Private,Private
-75.20555097932963,39.970732244332893,519,126513070,7557,3308,Belmont Academy Charter School,Belmont Academy CS,907 N 41st St,19104,(215) 396-5768,Open,Elementary School,Kindergarten,237,Charter,Charter
-75.017115701266306,40.104874966311854,520,,,3322,Philadelphia Academy Charter School (Annex),Phila Acad CS,1700 Tomlinson Rd,19116,215-673-3990,Open,High School,9-12,484,Charter,Charter
-75.161377030165767,39.978688461376954,521,,,3374,Alliance for Progress Charter School (Annex),Alliance CS (Annex),1630-32 N 16th St,19121,(215) 232-4892,Open,Elementary School,4-8,,Charter,Charter
-75.092234280815305,40.049450204609592,522,226510912,,,Cedar Grove Christian Acad Lower School,Cedar Grove Christian Acad,600 Hellerman Street,19111,(215) 725-3383,Open,Elem/Middle,pre K-8,269,Private,Private
-75.148141999591743,39.942679731360116,523,226519162,,,St Peters School,St Peters School,311-21 LOMBARD ST,19147,(215) 925-3963,Open,Elem/Middle,pre K-8,209,Private,Private
-75.137549004455309,39.991988975527732,524,226519672,,,Timothy Academy,Timothy Acad,2637-47 N 04TH ST,19133,(215) 425-8886,Open,Elem/Middle,K-8,137,Private,Private
-75.164896391433942,39.97315271671998,525,226518302,,,St Joseph's Preparatory School,St. Joseph's Prep Sch,1733 W GIRARD AVE,19130,215-978-1950,Open,High School,9-12,992,Private,Private
-75.213723657177709,39.94874297688272,526,226515682,,,Faith Connection Christian Academy,Faith Connection Christian Acad,4524 Baltimore Ave,19143,(215) 592-0974,Open,Elem/Mid/High,K-12,145,Private,Private
-75.047001865250792,40.107118891923633,527,326510160,,,Red Lion Elementary School,Red Lion Elem,256 GEIGER RD,19115,(215) 464-8623 ,Open,Elementary School,K-5,61,Private,Private
-74.985949503735952,40.105073505915897,528,300519545,,,Woodhaven,Woodhaven,2900 Southampton Rd,19154,(215) 671-5062,Open,Special Center,Ungraded,9,Private,Private
-74.986870402389158,40.104700507221217,529,326510075,,,Northwestern Human Services,Northwestern Human Services,2900 SOUTHAMPTON RD,19154,215-671-5155,Open,Elem/Mid/High,K-12,32,Private,Private
-74.985669800248061,40.060003450361613,530,226510232,,,Alpha House Nursery & Kindergarten,Alpha House Nursery & kdg,9801 FRANKFORD AVE,19114,(215) 632-3366,Open,Kindergarten,pre K-K,31,Private,Private
-74.993427615862871,40.058075511324454,531,226510026,,,All Saints Episcopal School,All Saints Episcopal Sch,9571 FRANKFORD AVE,19114,(215) 637-8787,Open,Kindergarten,pre K-K,16,Private,Private
-75.060136282853719,40.019020419262375,532,226510032,,,Maranatha Baptist Academy,Maranatha Baptist Acad,4525 COMLY ST,19135,(215) 338-9535,Open,Ungraded,Ungraded,,Private,Private
-75.094007673929909,40.016696251261031,533,300512140,,,Bridge School,Bridge School,1100 Adams Ave,19111,(215) 342-5000,Open,Vo-tech,Vo-Tech,31,Private,Private
-75.05643079877234,40.04377554450501,534,226515662,,,Northeast Central Chr Sch,Northeast Central Chr Sch,7200-50 E ROOSEVELT BLV,19149,(215) 624-8046,Open,Kindergarten,pre K-K,10,Private,Private
-75.078458827508186,40.04038563884771,535,226510068,,,Crystal River Academy,Crystal River Acad,6401 LORETTO AVE,19111,(215) 744-3757,Open,Pre-K,pre K,28,Private,Private
-75.101378450721029,40.012116013520171,536,226512252,,,Holy Innocents School,Holy Innocents School,1301 E HUNTING PARK AVE,19124,(215) 743-5909,Open,Elem/Middle,pre K-8,274,Private,Archdiocese
-75.101625719587148,40.011219997728382,537,226518542,,,St Lucy Day School For Children With Visual Impairments,St Lucy Day Sch For Children w/ Visual Impair,1301 E HUNTING PARK AVE,19124,(215) 289-4220,Open,Elem/Middle,pre K-8,28,Private,Archdiocese
-75.156340150860913,40.006952641237035,538,226510064,,,Spring Garden Academy - Tioga,Spring Garden Acad - Tioga,3501-05 N 17TH ST,19140,(215)226-1000,Open,Elem/Middle,pre K-8,,Private,Private
-75.157845206579765,40.002512094537771,539,300518830,,,Thankful Learning Center Inc,Thankful Lrn Ctr,3200-02 N 17TH ST,19140,(215) 226-5544,Open,Pre-school,Preschool,10,Private,Private
-75.167743319040383,39.972726810377146,540,226510063,,,Education is the Key Learning Center,Education is the Key Lrn Ctr,1901 W Girard Ave,19142,(215) 937-1980,Open,Elem/Middle,Pre K-7,11,Private,Private
-75.144908420682228,40.040017176278305,541,226510070,,,Tarbiyatul ILM Academy Inc.,Tarbiyatul ILM Acad,5700 N Broad St,19141,(215) 288-4600,Open,Elem/Middle,K-8,84,Private,Private
-75.16327163534163,40.041740927545391,542,226510031,,,Kids World Christian Education Center- Germantown,Kids World Christian Ed Center- Germantown,629 E Church Lane,19144,(215) 848-1800,Open,Elementary School,pre K-5,20,Private,Private
-75.182484404821253,40.004258477855139,543,226510073,,,St James School,St James School,3201-29 W CLEARFIELD ST,19132,(215) 226-1276,Open,Middle School,5-8,32,Private,Private
-75.186092998470144,40.001663956557117,544,300515320,,,Prodigy Learning Centers,Prodigy Lrn Ctrs,3345 W HUNTING PARK AVE,19132,(215) 228-7678,Open,Elementary School,pre K-3,75,Private,Private
-75.149213667454987,40.052100237669706,545,226514262,,,Mt Airy Christian Day School,Mt Airy Christian Day Sch,6401 OGONTZ AVE,19126,(215) 276-2990,Open,Pre-school,Preschool,26,Private,Private
-75.151567517466702,40.050893119366535,546,300510078,,,Johnson Child Care Center,Johnson Child Care Ctr,1919 MEDARY AVE,19141,215 927 6677,Open,Pre-K,pre K,137,Private,Private
-75.155853430924992,40.047681543946076,547,226511712,,,Adelaide Educational Academy Center,Adelaide Ed Acad Ctr,6100 N 21ST ST,19138,(215) 844-5000,Open,Pre-K/Elementary,Pre K- 7,27,Private,Private
-75.139921351491381,40.041016858703244,548,226515695,,,Saints Tabernacle Day School,Saints Tabernacle Day Sch,5800 N MARVINE ST,19141,(215) 548-6011,Open,Elem/Middle,K-8,55,Private,Private
-75.145054619598852,40.028650267142275,549,226510004,,,Logan Hope School,Logan Hope Sch,4934 N 13TH ST,19141,(215) 455-7442,Open,Elem/Middle,K-8,60,Private,Private
-75.231468594535059,39.987856537955892,550,,,3327,Laboratory Charter School of Communications/Design (Annex),Laboratory CS of Comm/Design (Annex),5339 Lebanon Ave,19131,215-877-9880,Open,Elem/Middle,5-8,,Charter,Charter
-75.243043760657173,39.988180899726977,551,,,3377,Laboratory Charter School of Communications/Design (Annex),Laboratory CS of Comm/Design (Annex),5901 Woodbine Ave,19131,215-452-5580,Open,Elementary School,K-4,,Charter,Charter
-74.987848204817524,40.0807023824213,552,126515001,,8320,John Hancock Demonstration Middle School- LaBrum Campus,"La Brum, General J. Harry",10800 Hawley St.,19154,(215) 281-2607,Open,Middle School,6-8,227,District,District
-75.227012392642052,39.92197632601048,553,226516452,,,St Barnabas Catholic School,St. Barnabas Catholic School,6334 Buist Ave,19142,(215) 729-3603,Open,Elem/Middle,pre K-8,239,Private,Archdiocese
-75.193706311097202,39.935268989938201,554,226517702,,,St Gabriel School,St Gabriel School,1432 S  29TH ST,19146,215-468-7230,Open,Elem/Middle,pre K-8,159,Private,Archdiocese
-75.015576669005057,40.046904572169957,555,226517302,,,St Dominic School,St Dominic School,8504 FRANKFORD AVE,19136,(215) 333-6703,Open,Elem/Middle,pre K-8,391,Private,Archdiocese
-75.21549466742519,39.947776065754816,556,226517552,,,St Francis Desales School,St Francis Desales Sch,917 S 47TH ST,19143,(215) 387-1749,Open,Elem/Middle,K-8,521,Private,Archdiocese
-75.16292789655995,39.927391528025069,557,226518692,,,SS John Neumann and Maria Goretti Catholic High School,SS John Neumann & Maria Goretti Catholic HS,1736 S 10TH ST,19148,(215) 465-8437,Open,High School,9-12,662,Private,Archdiocese
-75.034324091463603,40.031355551589108,558,226518002,,,St Huberts Catholic High School,St Huberts Cath HS,7320 TORRESDALE AVE,19136,(215) 624-6840,Open,High School,9-12,675,Private,Archdiocese
-75.126793894163697,39.989894420763342,559,226519752,,,Visitation School,Visitation School,300-40 E LEHIGH AVE,19125,(215) 634-7280,Open,Elem/Middle,K-8,408,Private,Archdiocese
-75.211695595726908,39.957254156574102,560,226519902,,,West Catholic Preparatory High School,West Phila Cath HS,4501-17 CHESTNUT ST,19139,(215)386-2244,Open,High School,9-12,373,Private,Archdiocese
-75.174692269845181,39.93040202507202,561,226519382,,,St Thomas Aquinas School,St Thomas Aquinas Sch,1616 S  17TH ST,19145,(215) 334-0878,Open,Elem/Middle,pre K-8,208,Private,Archdiocese
-75.167117829181748,40.071991440947059,562,226519222,,,St Raymond of Penafort School,St Raymond School,1330 VERNON RD,19150,(215) 548-1919,Open,Elem/Middle,pre K-8,263,Private,Archdiocese
-75.06042712925931,40.030793515536494,563,226519422,,,Blessed Trinity Regional Catholic School,Blessed Trinity Regional Cath Sch,3001 LEVICK ST,19149,(215) 338-9797,Open,Elem/Middle,1-8,466,Private,Archdiocese
-75.144876683945512,39.969594475309158,564,226519142,,,St Peter the Apostle School,St Peter the Apostle Sch,1019 N 5th St,19123,(215) 922-5958,Open,Elem/Middle,pre K-8,188,Private,Archdiocese
-75.049967886854716,40.041441349462161,565,226518932,,,St Matthew School,St Matthew School,3000 COTTMAN AVE,19149,(215) 333-3142,Open,Elem/Middle,pre K-8,835,Private,Archdiocese
-75.12965629280859,39.976776858594171,566,226518422,,,St Laurentius School,St Laurentius School,1612 E BERKS ST,19125,(215) 423-8834,Open,Elem/Middle,K-8,214,Private,Archdiocese
-75.144716085164703,40.013520718632712,567,226512952,,,Little Flower Catholic School,Little Flower Cath Sch,1001 W LUZERNE ST,19140,215-455-6900,Open,High School,9-12,750,Private,Archdiocese
-75.101610154559225,40.011696283386158,568,226510502,,,Archbishop Ryan Academy for the Deaf,Archbishop Ryan Sch Hard of Hearing Children,4251 L Street,19124,(215) 289-4220,Open,Elem/Middle,K-8,8,Private,Archdiocese
-75.138975382081028,40.004912120013373,569,226519442,,,St Veronica School,St Veronica School,3501-25 N 6TH ST,19140,(215) 225-1575,Open,Elem/Middle,K-8,200,Private,Archdiocese
-75.093348782548389,39.988589105915636,570,226517752,,,St George School,St George School,2700 E VENANGO ST,19134,(215) 634-8803,Open,Elem/Middle,pre K-8,197,Private,Archdiocese
-75.110274046628874,39.981496262265324,571,226514252,,,Mother Divine Grace School,Mother of Divine Grace Sch,2612 E MONMOUTH ST,19134,(215) 426-7325,Open,Elem/Middle,pre K-8,214,Private,Archdiocese
-74.985925744923861,40.056809008914549,572,226514352,,,Nazareth Academy Grade School,Nazareth Acad Grade Sch,4701 Grant Ave,19114,215-637-7777,Open,Elem/Middle,1-8,233,Private,Private
-74.987627520572559,40.059143106621555,573,226514402,,,Nazareth Academy High School,Nazareth Acad HS,4001 GRANT AVE,19114,(215) 637-7676,Open,High School,9-12,432,Private,Private
-75.227160086425997,39.953431551213377,574,126515001,3807,1330,Global Leadership Academy Southwest,Global Leadership Academy at Huey,5200 Pine St,19143 - 4111,,Open,Elem/Middle,K-8,562,Charter,Charter
-75.129076712694072,39.978756643309325,575,226510512,,,Bethel Baptist Academy,Bethel Baptist Acad,2210 E SUSQUEHANNA AVE,19125,(215) 426-1909,Open,Elem/Mid/High,pre K-12,53,Private,Private
-75.24252029246847,39.920063946582182,576,226511922,,,Greater Hope Christian Academy,Greater Hope Christian Acad,7029 WOODLAND AVE,19142,215-729-0374,Open,Elem/Mid/High,K-12,114,Private,Private
-75.211354294540669,39.955476851156305,577,226512762,,,Islamic Education School,Islamic Education Sch,4431-39 WALNUT ST,19104,(215) 387-8888,Open,Elem/Middle,pre K-8,50,Private,Private
-75.243334411189693,39.960552634375759,578,226512872,,,Kids World Christian Education Center- West Philadelphia,Kids World Christian Ed Ctr- West Phila,100-04 S 61ST ST,19139,215-474-1484,Open,Elementary School,pre K-4,14,Private,Private
-75.252434051890262,39.971953719736184,579,226510011,,,Shepherds Christian Academy,Shepherds Christian Acad,6634-42 HAVERFORD AVE,19151,(215) 476-4101,Open,Elementary School,pre K-5,105,Private,Private
-75.218521432045236,39.937524795371885,580,226512962,,,Little Footsteps Islam Institute,Little Footsteps Islam Ins,5314 YOCUM ST,19143,(267) 236-8559,Open,Elem/Middle,pre K-8,36,Private,Private
-75.185926134366653,40.02270014679624,581,226515412,,,William Penn Charter School,William Penn CS,3000 W School House La,19144,(215) 844-3460,Open,Elem/Mid/High,pre K-12,921,Private,Private
-75.222383059509994,39.954404885729645,582,226510695,,,Beulah Baptist Christian Day School,Beulah Baptist Christian Day Sch,5001 Spruce St,19139,(215) 747-3347,Open,Elem/Middle,K-8,94,Private,Private
-75.08719642580823,40.015350402537223,583,226511622,,,Frankford Friends School,Frankford Friends School,1500 ORTHODOX ST,19124,(215) 533-5368,Open,Elem/Middle,pre K-8,120,Private,Private
-75.18356851193505,40.049059670867067,584,226515532,,,Project Learn,Project Learn,6519-25 GERMANTOWN AVE,19119,(215) 438-3623,Open,Elem/Middle,K-8,65,Private,Private
-75.172121869218515,40.042696874300688,585,226512992,,,Lotus Academy,Lotus Academy,334 E HAINES ST,19144,(215) 438-7500,Open,Elem/Middle,pre K-8,86,Private,Private
-75.181742260874472,39.910122208114664,586,226510722,,,Calvary Temple Christian Academy,Calvary Temple Chrst Acad,3301 S  20TH  ST,19145,(215) 462-2822,Open,Elem/Middle,pre K-8,121,Private,Private
-75.186789567799011,39.940598888560181,587,226511235,,,Crooked Places Made Straight,Crooked Places Made Straight,2617 Washington Ave,19146,(215) 339-5007,Open,Elem/Mid/High,K-12,101,Private,Private
-75.121728938297977,40.026547878488557,588,226510029,,,Better Way Christian Academy,Better Way Christian Acad,4950 Rising Sun Ave,19120,(267) 336-7529,Open,Elem/Mid/High,K-12,22,Private,Private
-75.149612314223219,39.946051220141833,589,226518902,,,St Marys Interparochial School,St. Mary's Interparochial Sch,440 Locust Street,19106,215-923-7522,Open,Elem/Middle,K-8,247,Private,Archdiocese
-74.985049067316453,40.087577987974385,590,226518722,,,St Martha School,St Martha School,11301 ACADEMY RD,19154,(215) 632-0320,Open,Elem/Middle,pre K-8,359,Private,Archdiocese
-75.038992201273103,40.08192296248432,591,226514052,,,Maternity BVM School,Maternity BVM Sch,9322 Old Bustleton Ave,19115,(215) 673-0235,Open,Elem/Middle,pre K-8,505,Private,Archdiocese
-74.978296656249142,40.07930241604155,592,226514852,,,Our Lady of Calvary School,Our Lady of Calvary Sch,11024 KNIGHTS RD,19154,(215) 637-1648,Open,Elem/Middle,pre K-8,741,Private,Archdiocese
-74.995300520647959,40.075282314099219,593,226511102,,,Christ the King School,Christ the King Sch,3201 CHESTERFIELD RD,19114,(215) 632-1375,Open,Elem/Middle,K-8,357,Private,Archdiocese
-75.185934304852935,40.053350171785439,594,226510019,,,Jesus Is The Way Christian Academy,Jesus Is The Way Christian Acad,6753 GERMANTOWN AVE,19119,267-970-9779,Open,Ungraded,Ungraded,14,Private,Private
-75.191262010029234,40.039531325646948,595,300512880,,,Cooperative Nursery School,Cooperative Nursery Sch,6509 LINCOLN DR,19119,(215) 844-5770,Open,Pre-K,pre K,39,Private,Private
-75.150633465944153,39.947381196905702,596,326510174,,,"Chesterbrook Academy
",Chesterbrook Acad,510 Walnut St,19106,(215)592-8257,Open,Pre-school,Preschool,,Private,Private
-75.15946754930043,40.039608635393733,597,326510169,,,Clarke Schools for Hearing and Speech,"Clarke Pennsylvania, Inc.",625 Wister Street,19144,267-385-3436,Open,Pre-school,Preschool,,Private,Private
-75.165131052724007,39.988716654902532,598,226510085,,,Computer Kidz Christian Academy,Computer Kidz,2243-57 N. 20th St,19132,(215)235-1230,Open,Pre-school,Preschool,12,Private,Private
-75.146386095247905,40.032528046468421,599,226510080,,,Cristo Rey Philadelphia High School,Cristo Rey Phila HS,5218 N. Broad Street,19141,(215)219-3943,Open,High School,9-12,125,Private,Private
-75.189280753059464,40.058862814145975,600,226510088,,,Education Nation Christian Academy,Education Nation Christian Acad,13 E Mount Pleasant Ave,19119,(267)408-1209,Open,,,,Private,Private
-75.167263557634996,40.055578353783879,601,300513890,,,Green Tree School,Green Tree,1196 E Washington Ln,19138,(215) 866-0200,Open,Special Center,Ungraded,,Private,Private
-75.230077727142003,39.991312214864145,602,226510083,,,"In The Beginning, Inc.",In The Beginning,5200 Wynnefield Avenue,19131,(215) 878-4034,Open,Kindergarten,pre K-K,,Private,Private
-75.115382181865883,40.027302879828319,603,226510081,,,Olney Christian School,Olney Christian Sch,425 E. Roosevelt Blvd,19120,(215)324-1186,Open,Elementary School,K-2,29,Private,Private
-75.16761180925063,39.922574102320731,604,226511502,,,Our Lady of Hope Regional Catholic School,Our Lady of Hope,1248 Jackson Street,19148,(215)467-5385,Open,Elem/Middle,K-8,378,Private,Archdiocese
-75.157291570026786,39.957561732311241,605,226510086,,,Philadelphia Classical School,Phila Classical Sch,1101 Vine Street,19146,(412)915-5510,Open,Elem/Mid/High,K-12,,Private,Private
-75.176166291116971,39.94153997384285,606,226510071,,,Philadelphia Free School,Phila Free School,2001 Christian Street,19146,(215)218-9586,Open,Elem/Mid/High,pre K-12,,Private,Private
-75.07544875577527,40.021659631717661,607,226500000,,,School of Faith in God,Faith in God,1680-82 Bridge Street,19124,(215)833-7613,Open,Elem/Mid/High,K-12,,Private,Private
-75.183697188649163,40.006745703144588,608,226510067,,,Smart Center Academy,Smart Center Academy,3301-33 W. Westmoreland Street,19129,(610)742-2804,Open,Pre-school,Preschool,,Private,Private
-75.16104775875074,39.927578398580927,609,226519042,,,St Anthony of Padua Regional Catholic School,St Anthony of Padua,913 Pierce Street,19148,(215)468-0353,Open,Elem/Middle,pre K-8,309,Private,Archdiocese
-75.061294698240829,40.056711197257165,610,226510054,,,Gan Chabad,Gan Chabad,7620 Castor Ave,19152,(215)695-0399,Open,Kindergarten,Kindergarten,20,Private,Private
-75.143925637796926,40.057648043537611,611,326510173,,,Westwood School,Westwood,6801 N 16th St,19126,(267)707-6142,Open,Elementary School,pre K-3,,Private,Private
-75.211911249533571,39.955532301146569,612,226519094,,,The City School at Walnut Street,The City School at Walnut Street,4501 Walnut Street,19139,(215) 382-7839,Open,Middle School,6-8,,Private,Private
-75.161949149658753,39.940197869797416,613,126515001,7904,2620,ACADEMY AT PALUMBO,Academy at Palumbo,1100 CATHARINE ST,19147,215-400-8130,,HIGH,'09-12',921,,DISTRICT
-75.130279068767948,39.972486033244842,614,126515001,7256,5200,"ADAIRE, ALEXANDER SCHOOL",Alexander Adaire School,1300 E PALMER ST,19125,215-400-7480,,ELEMENTARYMIDDLE,'00-08',355,,DISTRICT
-75.183604961271982,39.997182351097955,615,126515001,5292,4440,"ALLEN, DR. ETHEL SCHOOL",Dr. Ethel Allen School,3200 W LEHIGH AVE,19132,215-400-7040,,ELEMENTARYMIDDLE,'00-08',436,,DISTRICT
-75.06191672252524,40.029845387429013,616,126515001,3758,8200,"ALLEN, ETHAN SCHOOL",Ethan Allen School ,6329 BATTERSBY ST,19149,215-400-3270,,ELEMENTARYMIDDLE,'00-08',991,,DISTRICT
-75.097286636168064,39.985366305751199,617,126515001,6823,5430,AMY 5 AT JAMES MARTIN,Alternative Middle Years at James Martin ,3380 RICHMOND ST,19134,215-400-7190,,MIDDLE,'06-08',429,,DISTRICT
-75.212786739287168,40.031060632173435,618,126515001,7024,6480,AMY NORTHWEST,Academy for the Middle Years at Northwest,6000 RIDGE AVE,19128,215-400-3460,,MIDDLE,'06-08',310,,DISTRICT
-75.245716999868648,39.946726000325981,619,126515001,3804,1460,"ANDERSON, ADD B. SCHOOL",Add B. Anderson School,1034 S 60TH ST,19143,215-400-7890,,ELEMENTARYMIDDLE,'00-08',481,,DISTRICT
-75.175898625617606,39.941864465147106,620,126515001,3805,2480,"ARTHUR, CHESTER A. SCHOOL",Chester A. Arthur School,2000 CATHARINE ST,19146,215-400-7940,,ELEMENTARYMIDDLE,'00-08',257,,DISTRICT
-74.974081065676344,40.082649002949424,621,126515001,8039,8040,ARTS ACADEMY AT BENJAMIN RUSH,Arts Academy at Benjamin Rush,11081 KNIGHTS RD,19154,215-400-3030,,HIGH,'09-12',630,,DISTRICT
-75.174077131250925,39.970025287448514,622,126515001,3618,2210,BACHE-MARTIN SCHOOL,Bache-Martin School,2201 BROWN ST,19130,215-400-7550,,ELEMENTARYMIDDLE,'00-08',465,,DISTRICT
-75.052630844966174,40.092006028107846,623,126515001,6824,8160,BALDI MIDDLE SCHOOL,Baldi School,8801 VERREE RD,19115,215-400-3090,,MIDDLE,'06-08',1439,,DISTRICT
-75.238603760587281,39.964374939761711,624,126515001,8029,1200,"BARRY, JOHN ELEMENTARY SCHOOL",John Barry School,5900 RACE ST,19139,215-400-7640,,ELEMENTARYMIDDLE,'00-08',644,,DISTRICT
-75.119549594098586,40.020373609694012,625,126515001,3732,7200,BARTON SCHOOL,Clara Barton School,4600 ROSEHILL ST,19120,215-400-3720,,ELEMENTARY,'00-02',713,,DISTRICT
-75.233861577972917,39.921683125499328,626,126515001,3847,1010,"BARTRAM, JOHN HIGH SCHOOL",John Bartram High School,2401 S 67TH ST,19142,215-400-8100,,HIGH,'09-12',565,,DISTRICT
-75.148184356895158,40.003640677671527,627,126515001,5183,7510,"BETHUNE, MARY MCLEOD SCHOOL",Mary M. Bethune School,3301 OLD YORK RD,19140,215-400-3890,,ELEMENTARYMIDDLE,'00-08',726,,DISTRICT
-75.182938869881653,39.985212970125176,628,126515001,3662,4220,"BLAINE, JAMES G. SCHOOL",James G. Blaine School,3001 W BERKS ST,19121,215-400-7330,,ELEMENTARYMIDDLE,'00-08',494,,DISTRICT
-75.215143449905469,39.972629098984562,629,126515001,3663,1490,"BLANKENBURG, RUDOLPH SCHOOL",Rudolph Blankenburg School,4600 W GIRARD AVE,19131,215-400-7280,,ELEMENTARYMIDDLE,'00-08',449,,DISTRICT
-75.143434430117338,39.967930259746183,630,126515001,7070,5150,"BODINE, WILLIAM W. HIGH SCHOOL",William W. Bodine High School,1101 N 4TH ST,19123,215-400-7630,,HIGH,'09-12',516,,DISTRICT
-75.176674000020924,39.91469899966016,631,126515001,3620,2240,"BREGY, F. AMEDEE SCHOOL",F. Amedee Bregy School,1700 BIGLER ST,19145,215-400-8210,,ELEMENTARYMIDDLE,'00-08',334,,DISTRICT
-75.066604709625366,40.000300819612846,632,126515001,3745,7470,BRIDESBURG SCHOOL,Bridesburg School,2824 JENKS ST,19137,215-400-7240,,ELEMENTARYMIDDLE,'00-08',816,,DISTRICT
-75.12725674042396,39.986617479948684,633,126515001,3684,5210,"BROWN, HENRY A. SCHOOL",Henry A. Brown School,1946 E SERGEANT ST,19125,215-400-7490,,ELEMENTARYMIDDLE,'00-08',498,,DISTRICT
-75.024625201596436,40.04346258731745,634,126515001,6529,8210,"BROWN, JOSEPH H. SCHOOL",Joseph H. Brown School,3600 STANWOOD ST,19136,215-400-3320,,ELEMENTARY,'00-06',584,,DISTRICT
-75.243562999754801,39.952791181364148,635,126515001,3601,1230,"BRYANT, WILLIAM C. SCHOOL",William C. Bryant School,6001 CEDAR AVE,19143,215-400-7910,,ELEMENTARYMIDDLE,'00-08',410,,DISTRICT
-75.152481000366123,40.053631000300037,636,126515001,8332,5610,BUILDING 21,Building 21,6501 LIMEKILN PIKE,19138,215-400-7450,,HIGH,'09-12',382,,DISTRICT
-75.084142000054527,40.038956999886324,637,126515001,7230,7220,"CARNELL, LAURA H. SCHOOL",Laura H. Carnell School,1100 DEVEREAUX AVE,19111,215-400-3150,,ELEMENTARY,'00-05',945,,DISTRICT
-75.250774430629392,39.97551874036099,638,126515001,3664,4240,"CASSIDY,LEWIS C ACADEMICS PLUS",Lewis C. Cassidy Academics Plus School,6523 LANSDOWNE AVE,19151,215-400-7510,,ELEMENTARYMIDDLE,'00-08',421,,DISTRICT
-75.239910999597754,39.927435000246,639,126515001,3602,1250,"CATHARINE, JOSEPH SCHOOL",Joseph W. Catharine School,6600 CHESTER AVE,19142,215-400-8150,,ELEMENTARY,'00-05',533,,DISTRICT
-75.135020769556107,40.01795817897883,640,126515001,7404,5490,CAYUGA SCHOOL,Cayuga School,4344-4358 N 5TH ST,19140,215-400-3850,,ELEMENTARY,'00-05',487,,DISTRICT
-75.150748250106503,40.037285099677725,641,126515001,3848,6010,CENTRAL HIGH SCHOOL,Central High School,1700 W OLNEY AVE,19141,215-400-3590,,HIGH,'09-12',2388,,DISTRICT
-75.170493000366719,39.934636999785354,642,126515001,3622,2260,"CHILDS, GEORGE W. SCHOOL",George W. Childs School,1599 WHARTON ST,19146,215-400-7950,,ELEMENTARYMIDDLE,'00-08',521,,DISTRICT
-75.129735999717752,40.006818999766686,643,126515001,6767,7730,"CLEMENTE, ROBERTO MIDDLE SCHL",Roberto Clemente School,122 W ERIE AVE,19140,215-400-3930,,MIDDLE,'06-08',438,,DISTRICT
-75.216288999676138,39.94052000043613,644,126515001,3782,1260,"COMEGYS, BENJAMIN B. SCHOOL",Benjamin B. Comegys School,5100 GREENWAY AVE,19143,215-400-7860,,ELEMENTARYMIDDLE,'00-08',508,,DISTRICT
-75.009108799604363,40.12096485945294,645,126515001,3760,8370,"COMLY, WATSON SCHOOL",Watson Comly School,1001 BYBERRY RD,19116,215-400-3010,,ELEMENTARY,'00-05',497,,DISTRICT
-75.152335999957387,39.95025200002754,646,126515001,7905,2670,CONSTITUTION HIGH SCHOOL,Constitution High School,18 S 7TH ST,19106,215-400-7850,,HIGH,'09-12',393,,DISTRICT
-75.114820022376662,39.994419047934535,647,126515001,6525,5230,"CONWELL, RUSSELL MIDDLE SCHOOL",Russell H. Conwell School,1849 E CLEARFIELD ST,19134,215-400-7210,,MIDDLE,'05-08',411,,DISTRICT
-75.146074000146498,40.025526000187469,648,126515001,7239,7100,"COOKE, JAY ELEMENTARY SCHOOL",Jay Cooke School,1300 W LOUDEN ST,19141,215-400-8330,,ELEMENTARYMIDDLE,'00-08',434,,DISTRICT
-75.206801999714443,40.02247200008879,649,126515001,5122,6410,COOK-WISSAHICKON SCHOOL,Cook-Wissahickon School,201 E SALAIGNAC ST,19128,215-400-3430,,ELEMENTARYMIDDLE,'00-08',466,,DISTRICT
-75.129936250367422,40.002629120613484,650,126515001,5123,5470,"CRAMP, WILLIAM SCHOOL",William Cramp School,3449 N MASCHER ST,19140,215-400-3860,,ELEMENTARY,'00-05',505,,DISTRICT
-75.165483750233804,39.939419920199185,651,126515001,6996,2020,CREATIVE AND PERFORMING ARTS,High School for Creative and Performing Arts School,901 S BROAD ST,19147,215-400-8140,,HIGH,'09-12',706,,DISTRICT
-75.081331461615861,40.062190288702311,652,126515001,3762,8230,"CROSSAN, KENNEDY C. SCHOOL",Kennedy C. Crossan School,7350 BINGHAM ST,19111,215-400-3160,,ELEMENTARY,'00-05',363,,DISTRICT
-75.168334640661129,40.058406820418888,653,126515001,3706,6200,"DAY, ANNA B. SCHOOL",Anna B. Day School,6324 CRITTENDEN ST,19138,215-400-3520,,ELEMENTARYMIDDLE,'00-08',465,,DISTRICT
-75.138627430087197,39.992751640277376,654,126515001,7175,5170,"DEBURGOS, J. ELEMENTARY",Julia de Burgos School,401 W LEHIGH AVE,19133,215-400-7080,,ELEMENTARYMIDDLE,'00-08',900,,DISTRICT
-74.970534999465187,40.095818000413274,655,126515001,4727,8420,"DECATUR, STEPHEN SCHOOL",Stephen Decatur School,3500 ACADEMY RD,19154,215-400-3050,,ELEMENTARYMIDDLE,'00-08',1036,,DISTRICT
-75.173787000352149,39.986729999558747,656,126515001,3786,4270,"DICK, WILLIAM SCHOOL",William Dick School,2498 W DIAMOND ST,19121,215-400-7340,,ELEMENTARYMIDDLE,'00-08',529,,DISTRICT
-75.046589040002303,40.028369110238515,657,126515001,3763,8240,"DISSTON, HAMILTON SCHOOL",Hamilton Disston School,6801 COTTAGE ST,19135,215-400-3350,,ELEMENTARYMIDDLE,'00-08',907,,DISTRICT
-75.166895921761295,39.995142523582601,658,126515001,3841,4060,"DOBBINS, MURRELL HIGH SCHOOL",Murrell Dobbins Career and Technical High School,2150 W LEHIGH AVE,19132,215-400-7050,,HIGH,'09-12',613,,DISTRICT
-75.230671630696122,40.031475359549454,659,126515001,3726,6450,"DOBSON, JAMES SCHOOL",James Dobson School,4667 UMBRIA ST,19127,215-400-3570,,ELEMENTARYMIDDLE,'00-08',270,,DISTRICT
-75.158953568094816,39.985305643401723,660,126515001,5040,4460,"DUCKREY, TANNER SCHOOL",Tanner G. Duckrey School,1501 W DIAMOND ST,19121,215-400-7350,,ELEMENTARYMIDDLE,'00-08',685,,DISTRICT
-75.154169739596682,39.979487729791643,661,126515001,3687,5250,"DUNBAR, PAUL L. SCHOOL",Paul L. Dunbar School,1750 N 12TH ST,19122,215-400-7410,,ELEMENTARYMIDDLE,'00-08',280,,DISTRICT
-75.129442496846949,40.011854510011851,662,126515001,3849,5020,"EDISON, THOMAS A. HIGH SCHOOL",Thomas A. Edison High School,151 W LUZERNE ST,19140,215-400-3900,,HIGH,'09-12',1069,,DISTRICT
-75.170999869168156,40.072961257233025,663,126515001,3708,6210,"EDMONDS, FRANKLIN S. SCHOOL",Franklin S. Edmonds School,8025 THOURON AVE,19150,215-400-3370,,ELEMENTARYMIDDLE,'00-07',601,,DISTRICT
-75.12127399937782,39.997018000543726,664,126515001,3688,5260,"ELKIN, LEWIS SCHOOL",Lewis Elkin School,3199 D ST,19134,215-400-7140,,ELEMENTARY,'00-04',831,,DISTRICT
-75.138538094079067,40.05502494985371,665,126515001,3738,7260,ELLWOOD SCHOOL,Ellwood School,6701 N 13TH ST,19126,215-400-3540,,ELEMENTARY,'00-05',288,,DISTRICT
-75.177905729473267,40.05436289023654,666,126515001,3709,6220,"EMLEN, ELEANOR C. SCHOOL",Eleanor C. Emlen School,6501 CHEW AVE,19119,215-400-3470,,ELEMENTARY,'00-05',394,,DISTRICT
-75.161277890741587,39.983418089518153,667,126515001,7023,4030,ENGINEERING & SCIENCE HIGH,High School of Engineering and Science,1600 W NORRIS ST,19121,215-400-7380,,MIDDLEHIGH,'07-12',892,,DISTRICT
-75.052414759725124,40.06657162003053,668,126515001,7235,8380,"FARRELL, LOUIS H. SCHOOL",Louis H. Farrell School,8300 CASTOR AVE,19152,215-400-3230,,ELEMENTARYMIDDLE,'00-08',1132,,DISTRICT
-75.163107358676854,39.915451115528427,669,126515001,7226,2190,"FELL, D. NEWLIN SCHOOL",D. Newlin Fell School,900 W OREGON AVE,19148,215-400-8260,,ELEMENTARYMIDDLE,'00-08',579,,DISTRICT
-75.091707091230532,40.035649855929847,670,126515001,3816,7120,"FELS, SAMUEL HIGH SCHOOL",Samuel Fels High School,5500 LANGDON ST,19124,215-400-7100,,HIGH,'09-12',964,,DISTRICT
-75.121674999324483,40.019436999754042,671,126515001,7368,7500,FELTONVILLE ARTS & SCIENCES,Feltonville School of Arts and Sciences,210 E COURTLAND ST,19120,215-400-3810,,MIDDLE,'06-08',577,,DISTRICT
-75.121025640289304,40.020340020324866,672,126515001,3751,7310,FELTONVILLE INTERMEDIATE,Feltonville Intermediate School,238 E WYOMING AVE,19120,215-400-3730,,ELEMENTARY,'03-05',761,,DISTRICT
-75.119176000680184,40.043608000009513,673,126515001,3739,7270,"FINLETTER, THOMAS K. SCHOOL",Thomas K. Finletter School,6100 N FRONT ST,19120,215-400-3750,,ELEMENTARYMIDDLE,'00-08',745,,DISTRICT
-75.166337329668693,40.026100520363947,674,126515001,6913,6230,FITLER ACADEMICS PLUS,Fitler Academics Plus School,140 W SEYMOUR ST,19144,215-400-3610,,ELEMENTARYMIDDLE,'00-08',234,,DISTRICT
-74.976529000316631,40.080306000258773,675,126515001,3731,8390,"FITZPATRICK, A. L. SCHOOL",A.L. Fitzpatrick School,11061 KNIGHTS RD,19154,215-400-3060,,ELEMENTARYMIDDLE,'00-08',803,,DISTRICT
-75.035890999794745,40.034439999779721,676,126515001,3764,8250,"FORREST, EDWIN SCHOOL",Edwin Forrest School,7300 COTTAGE ST,19136,215-400-3330,,ELEMENTARY,'00-06',1208,,DISTRICT
-75.080794321505564,40.074856604844051,677,126515001,3765,8260,FOX CHASE SCHOOL,Fox Chase School,500 RHAWN ST,19111,215-400-3170,,ELEMENTARY,'00-05',490,,DISTRICT
-75.158654617062751,39.938608223051503,678,,,3369,Christopher Columbus Charter School (Annex),Christopher Columbus CS (Annex),1242 S 13th St,19147,215-925-7400,Open,Elementary School,5-8,,Charter,Charter
-75.176866123236195,39.966571817534927,679,226517652,,,St Francis Xavier School,St Francis Xavier Sch,641-51 N 24TH ST,19130,(215) 763-6564,Open,Elem/Middle,pre K-8,206,Private,Archdiocese
-75.169432594096747,39.959897858318705,680,226512852,,,John W Hallahan Girls School,John W Hallahan Girls Sch,319 N 19TH ST,19103,(215) 563-8930,Open,High School,9-12,567,Private,Archdiocese
-75.161964197570896,39.958299539482176,681,226515602,,,Roman Catholic High School,Roman Catholic HS,303 N BROAD ST,19107,215-627-1270,Open,High School,9-12,1065,Private,Archdiocese
-75.154984734380292,39.957549828538731,682,226512352,,,Holy Redeemer School,Holy Redeemer School,903-27 VINE ST,19107,215-922-0999,Open,Elem/Middle,K-8,279,Private,Archdiocese
-75.176270570390173,39.920963430520146,683,,,,St Monica Junior School (Annex),St Monica Jr,1700 RITNER ST,19145,215-334-3777,Open,Elem/Middle,pre K-5,613,Private,Archdiocese
-75.163004888504858,40.027117512053472,684,226517602,,,DePaul Catholic School,DePaul Catholic Sch,44 W LOGAN ST,19144,(215) 842-1266,Open,Elem/Middle,pre K-8,299,Private,Archdiocese
-75.102140181489759,39.999605980547138,685,226510057,,,Kensington Christian Fellowship Academy,Kensington Christian Fellowship Acad,1921-25 E VENANGO ST,19134,(215) 535-6424,Open,Elementary School,pre K-6,12,Private,Private
-75.244737688650801,39.969628364121206,686,370511710,,,Creative Minds & Each One Teach One Child Care Center,Creative Minds Child Care Ctr,427-35 N 63RD ST,19151,(215) 473-4472,Open,Pre-K,pre K,15,Private,Private
-75.246622359504428,39.983294679366431,687,226510075,,,63rd Street Multicultural Academy of Academic Excellence,63rd St Multicultural Acad.,1139 N 63RD ST,19151,(215)240-6721,Open,Elem/Mid/High,pre K-12,94,Private,Private
-75.228005905798199,39.925610542829034,688,226511242,,,Legacy Christian Academy,Legacy Christian Acad,6208-10 GRAYS AVE,19142,215-727-5000,Open,Elem/Middle,Pre K-7,45,Private,Private
-75.242891852712589,39.919942989072489,689,226510051,,,Individual Assessment Manager Resource Academy,Individual Assessment Manager Resource Acad,7035 WOODLAND AVE,19142,(215) 729-0374,Open,Special Center,Ungraded,40,Private,Private
-75.18833493449597,39.93249484937764,690,226510050,,,Miracle Temple Christian Academy,Miracle Temple Christian Acad,2600 TASKER ST,19145,(215) 755-3680,Open,Ungraded,Ungraded,11,Private,Private
-75.173782078720564,39.935058460710835,691,226510012,,,Twenty-first Century Christian Academy,21 Century Christian Acad,1253-55 S 18TH ST,19146,(610)812-5166 ,Open,Pre-school,Preschool,0,Private,Private
-75.172740100262885,39.927010295038272,692,226510009,,,True Gospel Tabernacle Learning Center,True Gospel Tabernacle Lrn Ctr,1900 S 16TH ST,19145,(215) 334-3343,Open,Pre-school,Preschool,43,Private,Private
-75.177623114518596,39.922355089988052,693,226519632,,,Trinity Christian School,Trinity Christian Sch,2300-34 S 18TH ST,19145,(215) 334-6656,Open,Preschool,Pre-K,14,Private,Private
-75.051977752459692,40.017156124233566,694,,,3404,Tacony Academy Charter School,Tacony Academy Charter School (High School),6201 Keystone St,19135,(267) 388-8656,Open,High School,9-12,,Charter,Charter
-75.1742733665602,40.032021088952838,695,300517000,,,Pennsylvania School for the Deaf,Pennsylvania School for the Deaf,100-52 W SCHOOL HOUSE LA,19144,(215) 951-4700,Open,Elem/Mid/High,pre K-12,190,Private,Private
-75.25024360252452,39.982830132036682,696,300516590,,,Overbrook School for Blind,Overbrook Sch for Blind,6333 MALVERN AVE,19151,(215) 877-0313,Open,Elem/Mid/High,pre K-12,197,Private,Private
-75.249569620236016,39.982002575400344,697,,,,Overbrook School for Blind (Annex),Overbrook Sch for Blind (Annex),6332 Malvern Ave,19151,215-877-0313,Open,Elem/Mid/High,pre K-12,,Private,Private
-75.171730566904813,39.973871609509615,698,226511852,,,Girard College,Girard College,2035 S COLLEGE AVE,19121, (215) 787-2600,Open,Elem/Mid/High,1-12,465,Private,Private
-75.206754006675354,39.950031204829948,699,226515832,,,The City School at Spruce Hill,The City School at Spruce Hill,4115 Baltimore Ave,19104,(215) 382-7839,Open,Elementary School,K-5,171,Private,Private
-75.21340755620281,39.969754194938005,700,226511172,,,Cockrell Christian School,Cockrell Christian Sch,4512-16 LANCASTER AVE,19131,(215) 520-3953,Open,Elem/Middle,K-8,54,Private,Private
-75.16734970305707,40.043460656108032,701,226511012,,,Chelten Christ Little People,Chelten Christ Little People,601-05 E CHELTEN AVE,19144,(215) 849-6614,Open,Kindergarten,pre K-K,24,Private,Private
-75.149582094138296,40.012854658353042,702,226510047,,,New Hope Christian Academy,New Hope Christian Acad,1345 McFerran Street,19140,(215) 391-0003,Open,Elem/Mid/High,pre K-12,,Private,Private
-75.211991267577972,40.026505529645249,703,326510170,,,Bridge Way School,Bridge Way School,4101 Freeland Ave,19128,(215) 410-8978,Open,Ungraded,Ungraded,1,Private,Private
-75.185454302387413,40.011558812909449,704,326510062,,,Seedlings Early Care and Education Program,Seedlings Early Care & Ed Program,3300 HENRY AVE,19129,215-254-2069,Open,Pre-K,pre K,73,Private,Private
-75.252946764261637,39.98828265843715,705,300516560,,,Overbrook Presby Church Preschool & Kindergarten,Overbrook Presby Church Presch & Kdg,6376-78 CITY AVE,19151,215) 877-8945,Open,Kindergarten,pre K-K,137,Private,Private
-75.021991441319713,40.100847847411707,706,326510175,,,Ann Kids,Ann Kids,10100 Jamison Ave,19116,(215)869-0207,Open,Pre-school,Preschool,,Private,Private
-75.214793319895207,39.99800661122206,707,300515921,,,Methodist Services for Children and Families,Methodist Services for Children and Families,4300 MONUMENT RD,19131,215-877-1925,Open,Kindergarten,pre K-K,10,Private,Private
-75.211290770671539,40.002937158655904,708,300513640,,,Easter Seals of Southeastern Pa - Joseph X. Yaffe Center,Easter Seals of SE PA - Joseph X. Yaffe Ctr,3975 CONSHOHOCKEN AVE,19131,(215) 879-1000,Open,Special Center,Ungraded,55,Private,Private
-75.210363389989851,40.003520911828318,709,226510072,,,K W Reed Christian Academy for Boys,K W Reed Christian Acad for Boys,3955 CONSHOHOCKEN AVE,19131,(215) 473-3000,Open,Elem/Middle,K-8,70,Private,Private
-75.172652770259631,39.984751497165234,710,326510079,,,Community Partnership School,Community Partnership Sch,1922-42 JUDSON ST,19121,(215) 235-0461,Open,Elementary School,pre K-5,83,Private,Private
-75.17570290297779,39.982804267873654,711,226510008,,,White Dove Performing Arts Acad,White Dove Performing Arts Acad,2510 RIDGE AVE,19121,(215) 236-7195,Open,Elem/Mid/High,K-12,5,Private,Private
-75.164355317593419,39.973706911764012,712,226511802,,,Gesu School,Gesu Sch,1701-33 W GIRARD AVE,19121,(215) 763-3660,Open,Elem/Middle,pre K-8,420,Private,Private
-75.160514987725463,39.971843453491282,713,226515632,,,Philadelphia Academic School,Phila Academic Sch,1421 W GIRARD AVE,19130,(215) 477-1040,Open,High School,12,14,Private,Private
-75.161448481314522,39.97454204830661,714,226510062,,,Shiloh Christian Academy,Shiloh Christian Acad,1516-34 MASTER ST,19121,215-763-7335 ,Open,Elem/Middle,K-8,70,Private,Private
-75.165675948950764,39.984919080811707,715,226510055,,,Al Mosheh Shule of Positive Ed,Al Mosheh Shule of Positive Ed,3922 Cambridge St,19104,(215) 765-6462,Open,Elem/Middle,K-4,4,Private,Private
-75.149268406524271,39.991810123134414,716,326510060,,,Hope Partnership for Education,Hope Partnership for Education,2601 N 11th St,19133,215-232-5410,Open,Middle/High,5-12,51,Private,Private
-75.167970672535418,39.963721612469797,717,226510024,,,Spring Garden Academy,Spring Garden Acad,1801 SPRING GARDEN ST,19130,(215)563-9192,Open,Pre-school,Preschool,30,Private,Private
-75.162471209540485,39.948644034532649,718,300518760,,,Student Education Center Delaware Valley High School CC,Student Ed Ctr DVHS,204-06 S 13TH ST,19107,(215) 732-5060,Open,High School,9-12,84,Private,Private
-75.15907136746624,39.942235186334571,719,300511820,,,Beginnings Learning Center,Beginnings Learning Ctr,620 S 10TH ST,19147,(215) 627-3668,Open,Pre-K,pre K,27,Private,Private
-75.208218802177342,39.948818967554907,720,226511232,,,Jubilee School,Jubilee School,4211 CHESTER AVE,19104,(215) 387-7592,Open,Elementary School,pre K-6,54,Private,Private
-75.217948476367283,39.961735575794897,721,226514112,,,Mill Creek School,Mill Creek Sch,111 N 49TH ST,19139,215-471-4900 ,Open,High School,9-12,50,Private,Private
-75.247439240626036,39.987841364237347,722,226510052,,,Ijoba Shule,Ijoba Shule,6026 Drexel Rd,19131,(215) 747-5737,Open,Elem/Middle,Pre K-7,5,Private,Private
-75.167538859451682,39.956148479331013,723,226511652,,,Friends Select School,Friends Select Sch,3 BENJ FRANKLIN PKY,19103,215-561-5900,Open,Elem/Mid/High,pre K-12,551,Private,Private
-75.175345547803545,39.956098622913849,724,300513960,,,Greene Towne School Inc,Greene Towne School Inc.,2119-21 ARCH ST,19103,215-563-6368,Open,Kindergarten,pre K-K,128,Private,Private
-75.211400605038961,39.948602403856086,725,300514200,,,HMS School for Children w/Cerebral Palsy,HMS Sch for Children w/Cerebral Palsy,4400 BALTIMORE AVE,19104,(215) 222-2566,Open,Elem/Mid/High,pre K-12,57,Private,Private
-75.181783472823014,39.946888898439617,726,226515462,,,Philadelphia School,Phila School,2501-29 LOMBARD ST,19146,(215) 545-5323,Open,Elem/Middle,pre K-8,387,Private,Private
-75.158056221196389,39.951432238015173,727,,,,Freire Charter School,Freire Charter School,1026 Market St,19107,(267) 670-7499,,Middle School,5-8,,Charter,Charter
-75.166322636072323,39.957890927395333,728,,,,Philadelphia Performing Arts Charter School,Philadelphia Performing Arts Charter School,1600 Vine St,19102,(267) 428-2224,,Middle/High,5-12,,Charter,Charter
-75.224618476905675,39.938770800210278,729,226511492,,,Evelyn Graves Christian Academy,Evelyn Graves Christian Acad,5501 Chester Ave,19143,215-727-7794,Open,Elem/Mid/High,pre K-12,27,Private,Private
-75.227419792858782,39.935170837529654,730,300512620,,,Cornerstone Christian Academy,Cornerstone Christian Acad,1939 S 58TH ST,19143,215-724-6858,Open,Elem/Middle,K-8,202,Private,Private
-75.177499149308744,40.024749763108083,731,226511372,,,Eagles Nest Christian School,Eagles Nest Christian Sch,501 W KING ST,19144,(215) 298-9508,Open,Elem/Mid/High,K-8,36,Private,Private
-75.137765567956663,40.006448038118791,732,226511552,,,Faith Tabernacle School,Faith Tabernacle Sch,3611 N RANDOLPH ST,19140,(215) 221-0909,Open,Elem/Mid/High,1-12,163,Private,Private
-75.176236010676774,40.033554677267276,733,,,6955,Camelot Therapeutic Day School of Philadelphia,Camelot Therapeutic Day School,5612 Greene St,19144,(267) 270-4665,Open,Therapeutic,9-12,46,District,District
-75.232379920003169,39.992127094166278,734,300519410,,,Woodbine Academy Inc,Woodbine Acad,5337 WYNNEFIELD AVE,19131,(215) 878-1141,Open,Elementary School,K-6,68,Private,Private
-75.2313597161899,39.992114686941669,735,226512842,,,Jameson Christian Academy,Jameson Christian Acad,5301 WYNNEFIELD AVE,19131,(215) 477-7777,Open,Elem/Mid/High,K-12,18,Private,Private
-75.141409713674861,39.973856071357623,736,226510132,,,Al-Aqsa Islamic School,Al-Aqsa Islamic Academy,1501-11 GERMANTOWN AVE,19122,215) 765-2743,Open,Elem/Mid/High,pre K-10,266,Private,Private
-75.18667838683389,40.043993185084986,737,226510682,,,Blair Christian Academy & Preschool,Blair Christian Acad & Presch,212-20 W UPSAL ST,19119,(215) 438-6557,Open,Elem/Middle,pre K-8,54,Private,Private
-75.017310558083153,40.129738649453934,738,226510732,,,Calvary Christian Academy,Calvary Christian Acad,13500 Philmont Ave,19116,215-969-1579,Open,Elem/Mid/High,pre K-12,936,Private,Private
-75.178174557056963,39.975600066083501,739,226510932,,,Celestial Christian Academy,Celestial Christian Acad,2534 W THOMPSON ST,19121,(215) 232-5863,Open,Elem/Middle,pre K-8,33,Private,Private
-75.141943614330287,40.020958881997608,740,226512022,,,Harold O Davis Christian School,Harold O Davis Christian Sch,1001 W WINGOHOCKING ST,19140,267-368-5102,Open,Elem/Mid/High,pre K-12,34,Private,Private
-75.117029989878759,40.030647694860512,741,226512732,,,International Christian High School,International Christian HS,413 E TABOR RD,19120,267-900-2000,Open,High School,9-12,116,Private,Private
-75.039186460670663,40.080445296768254,742,300514330,,,Politz Hebrew Academy,Politz Hebrew Acad,9229 OLD BUSTLETON AVE,19115,(215) 969-5960,Open,Elem/Middle,pre K-8,329,Private,Private
-75.139028347489912,39.973343902248175,743,226510023,,,LaSalle Academy,LaSalle Acad,1432-36 N 2ND ST,19122,(215) 739-5804,Open,Elem/Middle,3-8,90,Private,Private
-75.214968118071511,39.971103740835744,744,226515392,,,Quba Institute of Arabic & Islamic Studies,Quba Ins of Arabic & Islamic Studies,4637 LANCASTER AVE,19131,(215) 473-8589,Open,Elem/Middle,pre K-8,68,Private,Private
-75.045051209103875,40.099826186118605,745,226515872,,,Shaare Shamayim-Beth Judah Kindergarten,Shaare Shamayim-Beth Judah Kdg,9768 VERREE RD,19115,215-673-2323,Open,Kindergarten,Kindergarten,18,Private,Private
-75.248264347544563,39.98980408908978,746,226519542,,,Talmudical Yeshiva of Philadelphia,Talmudical Yeshiva of Phila,6055-63 DREXEL RD,19131,(215) 477-1000,Open,High School,9-12,112,Private,Private
-75.168039571868448,39.921301547041317,747,226514095,,,City Kids,City Kids,2311 S 13th St,19148,215-334-7440,Open,Kindergarten,pre K-K,15,Private,Private
-75.247217965243379,39.985531230318088,748,226510020,,,New Life Alternatives Christian Academy,New Life Alt Christian Acad,1993-95 N 63RD St,19151,(215) 877-3440,Open,Elementary School,K-4,44,Private,Private
-75.090144017123123,40.054814555287763,749,226511642,,,First Century Gospel School,First Century Gospel Sch,6807 RISING SUN AVE,19111,(215) 742-6615,Open,Elem/Mid/High,1-10,0,Private,Private
-75.140254568971713,40.055464768652271,750,226512032,,,Hope Church School,Hope Church Sch,6707 OLD YORK RD,19126,(215) 927-7770,Open,Elem/Mid/High,K-12,120,Private,Private
-75.137304558461494,40.018654646921711,751,226512672,,,Hunting Park Christian Academy,Hunting Park Christian Acad,601 W CAYUGA ST,19140,267-331-8002,Open,Elem/Middle,pre K-8,182,Private,Private
-75.169453796366952,39.94699546140474,752,226511132,,,The City School,The City School,315 S 17TH ST,19103,(215) 731-1930,Open,High School,9-12,99,Private,Private
-75.214997521103811,40.076685734939879,753,226514122,,,Crefeld School,Crefeld School,8836 CREFELD ST,19118,(215) 242-5545,Open,Middle/High,7-12,96,Private,Private
-75.078014039830833,40.058622173987082,754,226514492,,,Northeast Preparatory School,Northeast Prep Sch,1309 COTTMAN AVE,19111,215-342-5500,Open,High School,9-12,0,Private,Private
-75.028799348815753,40.040788165086951,755,226512042,,,Holmesburg Christian Academy,Holmesburg Christian Acad,7923 FRANKFORD AVE,19136,(215) 335-4323,Open,Elem/Middle,pre K-8,156,Private,Private
-75.172146737530198,40.032506522415851,756,226511702,,,Germantown Friends School,Germantown Friends Sch,31 W Coulter St,19144,(215) 951-2300,Open,Elem/Mid/High,K-12,855,Private,Private
-75.174577968888386,40.033256024476891,757,226511952,,,Greene Street Friends School,Greene Street Friends Sch,5511 GREENE ST,19144,(215) 438-7000,Open,Elem/Middle,pre K-8,230,Private,Private
-75.183579153851042,40.033928539108636,758,300517255,,,Waldorf School of Philadelphia,Waldorf Sch of Phila,7500 GERMANTOWN AVE,19144,(215) 248-1662,Open,Elem/Middle,pre K-8,184,Private,Private
-75.188670494665047,40.065970836774845,759,300518770,,,Big Backyard,Big Backyard,226 E GOWEN AVE,19119,(215) 248-0919,Open,Pre-K,pre K,45,Private,Private
-75.159286499863427,39.963005010401616,760,126515001,7782,5080,PARKWAY CENTER CITY MIDDLE COLLEGE HIGH SCHOOL,Parkway Center City Middle College High School,540 N 13TH ST,19123,215-400-7620,,HIGH,'09-12',478,,DISTRICT
-75.215808554725399,39.964602642463205,761,126515001,7808,5090,PARKWAY WEST HIGH SCHOOL,Parkway West High School,4725 FAIRMOUNT AVE,19139,215-400-7710,,HIGH,'09-12',316,,DISTRICT
-75.165170366905798,40.056453095509553,762,126515001,6548,5070,PARKWAY-NORTHWEST HIGH SCHOOL,Parkway Northwest High School,6200 CRITTENDEN ST,19138,215-400-3390,,HIGH,'09-12',260,,DISTRICT
-75.236761999327769,39.916095000314407,763,126515001,3613,1400,"PATTERSON, JOHN M. SCHOOL",John M. Patterson School,7000 BUIST AVE,19142,215-400-8190,,ELEMENTARY,'00-04',583,,DISTRICT
-75.168317054348108,39.998622030489898,764,126515001,3675,4380,"PEIRCE, THOMAS M. SCHOOL",Thomas M. Peirce School,2300 W CAMBRIA ST,19132,215-400-7020,,ELEMENTARY,'00-06',482,,DISTRICT
-75.208186999962962,39.953098999940842,765,126515001,7706,1280,PENN ALEXANDER SCHOOL,Sadie Alexander School,4209 SPRUCE ST,19104,215-400-7760,,ELEMENTARYMIDDLE,'00-08',579,,DISTRICT
-75.127155043814128,39.972708320738036,766,126515001,7244,5160,PENN TREATY HIGH SCHOOL,Penn Treaty High School,600 E THOMPSON ST,19125,215-400-3800,,MIDDLEHIGH,'06-12',539,,DISTRICT
-75.150781477470403,40.043394003501405,767,126515001,3722,6340,"PENNELL, JOSEPH ELEMENTARY",Joseph Pennell School,1800 NEDRO AVE,19141,215-400-3680,,ELEMENTARY,'00-05',436,,DISTRICT
-75.158946490562428,40.065255049560129,768,126515001,6539,6350,"PENNYPACKER, SAMUEL SCHOOL",Samuel Pennypacker School,1858 E WASHINGTON LN,19138,215-400-3510,,ELEMENTARYMIDDLE,'00-07',376,,DISTRICT
-75.247623090222945,39.907812323160528,769,126515001,3616,1440,PENROSE SCHOOL,Penrose School,2515 S 78TH ST,19153,215-400-8310,,ELEMENTARYMIDDLE,'00-08',531,,DISTRICT
-75.154435941931467,39.985408080783841,770,126515001,7850,5050,PHILADELPHIA MILITARY ACADEMY,Philadelphia Military Academy,2118 N 13TH ST,19122,215-400-7420,,HIGH,'09-12',311,,DISTRICT
-75.162644049543914,39.961021589462945,771,126515001,,8780,PHILADELPHIA VIRTUAL ACADEMY,Philadelphia Virtual Academy,440 N BROAD ST,19130,215-400-3110,,MIDDLEHIGH,'06-12',462,,DISTRICT
-75.027130000186318,40.060116000302315,772,126515001,3801,8410,"POLLOCK, ROBERT B. SCHOOL",Robert B. Pollock School,2875 WELSH RD,19152,215-400-3210,,ELEMENTARY,'00-06',628,,DISTRICT
-75.140736287624918,39.997177915513923,773,126515001,5121,5390,POTTER-THOMAS SCHOOL,Potter-Thomas School,3001 N 6TH ST,19133,215-400-7120,,ELEMENTARYMIDDLE,'00-08',559,,DISTRICT
-75.193641193181463,39.960148500769364,774,126515001,3783,1390,"POWEL, SAMUEL SCHOOL",Samuel Powel School,301 N 36TH ST,19104,215-400-7740,,ELEMENTARY,'00-04',268,,DISTRICT
-75.149560520606727,40.047707420245352,775,126515001,6765,7490,PRINCE HALL SCHOOL,Prince Hall School,6101 N GRATZ ST,19141,215-400-3690,,ELEMENTARY,'00-05',539,,DISTRICT
-75.179608999378686,40.008503999549959,776,126515001,7813,6090,RANDOLPH TECHNICAL HIGH SCHOOL,A. Philip Randolph Career and Technical High School,3101 HENRY AVE,19129,215-400-3840,,HIGH,'09-12',495,,DISTRICT
-75.058091643674942,40.058701084898665,777,126515001,3771,8360,RHAWNHURST SCHOOL,Rhawnhurst School,7809 CASTOR AVE,19152,215-400-3220,,ELEMENTARY,'00-05',630,,DISTRICT
-75.220062999917531,39.967339000172991,778,126515001,3614,1410,"RHOADS, JAMES SCHOOL",James Rhoads School,4901 PARRISH ST,19139,215-400-7680,,ELEMENTARYMIDDLE,'00-08',538,,DISTRICT
-75.178129789529379,40.002755940293568,779,126515001,6522,4350,RHODES ELEMENTARY SCHOOL,E. Washington Rhodes School,2900 W CLEARFIELD ST,19132,215-400-7060,,ELEMENTARYMIDDLE,'00-08',564,,DISTRICT
-75.110490999392866,39.983496000305657,780,126515001,3701,5400,RICHMOND SCHOOL,Richmond School,2944 BELGRADE ST,19134,215-400-7150,,ELEMENTARY,'00-05',627,,DISTRICT
-75.205536882674167,39.956971917991972,781,126515001,7780,1050,"ROBESON, PAUL HIGH SCHOOL",Paul Robeson High School for Human Services,4125 LUDLOW ST,19104,215-400-7780,,HIGH,'09-12',304,,DISTRICT
-75.175057050506993,40.048238228860804,782,126515001,3824,6360,ROOSEVELT ELEMENTARY SCHOOL,Theodore Roosevelt School,430 E WASHINGTON LN,19144,215-400-3640,,ELEMENTARYMIDDLE,'00-08',522,,DISTRICT
-75.148566074712107,40.058749817373723,783,126515001,3724,7530,"ROWEN, WILLIAM SCHOOL",William Rowen School,6841 N 19TH ST,19126,215-400-3550,,ELEMENTARY,'00-05',468,,DISTRICT
-75.222821051855476,40.037620648688417,784,126515001,3844,6030,ROXBOROUGH HIGH SCHOOL,Roxborough High School,6498 RIDGE AVE,19128,215-400-3400,,HIGH,'09-12',652,,DISTRICT
-75.221516982690659,40.049372569118418,785,126515001,3861,6040,"SAUL, WALTER B. HIGH SCHOOL",Walter B. Saul High School,7100 HENRY AVE,19128,215-400-3450,,HIGH,'09-12',506,,DISTRICT
-75.238594050310397,39.957593539991606,786,126515001,7245,1100,"SAYRE, WILLIAM L. HIGH SCHOOL",William L. Sayre High School,5800 WALNUT ST,19139,215-400-7800,,HIGH,'09-12',426,,DISTRICT
-75.242334579580188,39.986210584283725,787,126515001,,2680,SCIENCE LDSHP ACADEMY @ BEEBER,The Science Leadership Academy at Beeber,5925 MALVERN AVE,19131,215-400-7270,,HIGH,'09-12',484,,DISTRICT
-75.175859156011995,39.955725588440401,788,126515001,7906,2650,SCIENCE LEADERSHIP ACADEMY,Science Leadership Academy,55 N 22ND ST,19103,215-400-7830,,HIGH,'09-12',501,,DISTRICT
-75.193629229626168,39.962992429478739,789,126515001,,2050,SCIENCE LEADERSHIP ACADEMY MS,Science Leadership Academy Middle School,3509 SPRING GARDEN ST,19104,215-400-8320,,MIDDLE,'05-06',174,,DISTRICT
-75.15084102715322,39.918867752490485,790,126515001,3653,2630,"SHARSWOOD, GEORGE SCHOOL",George W. Sharswood School,2300 S 2ND ST,19148,215-400-8270,,ELEMENTARYMIDDLE,'00-08',547,,DISTRICT
-75.238543000657188,40.051478000081147,791,126515001,3725,6380,SHAWMONT SCHOOL,Shawmont School,535 SHAWMONT AVE,19128,215-400-3440,,ELEMENTARYMIDDLE,'00-08',494,,DISTRICT
-75.13162999989683,39.993651000080511,792,126515001,3702,5410,"SHEPPARD, ISAAC A. SCHOOL",Isaac A. Sheppard School,120 W CAMBRIA ST,19133,215-400-7070,,ELEMENTARY,'00-04',173,,DISTRICT
-75.114224762407559,39.999581931783709,793,126515001,3800,5530,"SHERIDAN, PHILIP H. SCHOOL",Philip H. Sheridan School,800 E ONTARIO ST,19134,215-400-7160,,ELEMENTARY,'00-04',697,,DISTRICT
-75.064724999729108,40.044644000051555,794,126515001,3773,8340,"SOLIS-COHEN, SOLOMON SCHOOL",Solomon Solis-Cohen School,7001 HORROCKS ST,19149,215-400-3250,,ELEMENTARY,'00-05',1198,,DISTRICT
-75.169106500688954,39.923898700521157,795,126515001,3859,2000,SOUTH PHILADELPHIA H.S.,South Philadelphia High School,2101 S BROAD ST,19148,215-400-8400,,HIGH,'09-12',564,,DISTRICT
-75.160242063056472,39.925894720129328,796,126515001,3654,2640,SOUTHWARK SCHOOL,Southwark School,1835 S 9TH ST,19148,215-400-8280,,ELEMENTARYMIDDLE,'00-08',800,,DISTRICT
-75.156140420678327,39.965161549612439,797,126515001,3655,5560,SPRING GARDEN SCHOOL,Spring Garden School,1146 MELON ST,19123,215-400-7610,,ELEMENTARYMIDDLE,'00-08',264,,DISTRICT
-75.072329359817175,40.037561420090526,798,126515001,7234,8350,"SPRUANCE, GILBERT SCHOOL",Gilbert Spruance School,6401 HORROCKS ST,19149,215-400-3290,,ELEMENTARYMIDDLE,'00-08',1412,,DISTRICT
-75.171017000378896,39.94050299955834,799,126515001,3635,2450,"STANTON, EDWIN M. SCHOOL",Edwin M. Stanton School,901 S 17TH ST,19146,215-400-7960,,ELEMENTARYMIDDLE,'00-08',255,,DISTRICT
-75.085112000008493,40.011752000034697,800,126515001,4963,7290,"STEARNE, ALLEN M. SCHOOL",Allen M. Stearne School,1655 UNITY ST,19124,215-400-3980,,ELEMENTARYMIDDLE,'00-08',518,,DISTRICT
-75.156890640319531,40.018795019943042,801,126515001,3727,6390,"STEEL, EDWARD SCHOOL",Edward T. Steel School,4301 WAYNE AVE,19140,215-400-3910,,ELEMENTARYMIDDLE,'00-08',528,,DISTRICT
-75.184024640344362,39.990743709630415,802,126515001,7255,4140,STRAWBERRY MANSION HIGH SCHOOL,Strawberry Mansion High School,3133 RIDGE AVE,19121,215-400-7500,,HIGH,'09-12',294,,DISTRICT
-75.066907355176753,40.01596199838297,803,126515001,3753,7430,"SULLIVAN, JAMES J. SCHOOL",James J. Sullivan School,5300 DITMAN ST,19124,215-400-3960,,ELEMENTARY,'00-05',736,,DISTRICT
-75.013988629290324,40.092109300028824,804,126515001,7072,8090,SWENSON ARTS/TECH HIGH SCHOOL,Swenson Arts and Technology High School,2750 RED LION RD,19114,215-400-3140,,HIGH,'09-12',648,,DISTRICT
-75.154522370222509,39.917212229577643,805,126515001,3657,2690,"TAGGART, JOHN H. SCHOOL",John H. Taggart School,400 W PORTER ST,19148,215-400-8290,,ELEMENTARYMIDDLE,'00-08',448,,DISTRICT
-75.138140426734864,40.007070886922662,806,126515001,3755,7440,"TAYLOR, BAYARD SCHOOL",Bayard Taylor School,3698 N RANDOLPH ST,19140,215-400-3880,,ELEMENTARY,'00-05',549,,DISTRICT
-75.129735999717752,40.006818999766686,807,126515001,,5660,THE LINC,The LINC,122 W ERIE AVE,19140,215-400-3940,,HIGH,'09-12',269,,DISTRICT
-75.146256000196331,39.981982999787704,808,126515001,,5620,THE U SCHOOL,The U School,2000 N 7TH ST,19122,215-400-7460,,HIGH,'09-12',292,,DISTRICT
-75.218553290499059,39.955305889627553,809,126515001,8328,8560,THE WORKSHOP SCHOOL,The Workshop School,221 S HANSON ST,19139,215-400-7730,,HIGH,'09-12',240,,DISTRICT
-75.232358071053,39.921391409474353,810,126515001,3832,1130,TILDEN MIDDLE SCHOOL,William T. Tilden School,6601 ELMWOOD AVE,19142,215-400-8170,,MIDDLE,'05-08',380,,DISTRICT
-75.152772254485399,39.933941492768326,811,126515001,3659,2720,VARE-WASHINGTON ELEMENTARY,Vare-Washington School,1198 S 5TH ST,19147,215-400-8120,,ELEMENTARYMIDDLE,'00-08',364,,DISTRICT
-75.174185999676709,39.97632499967267,812,126515001,,5180,VAUX HIGH SCHOOL,Vaux High School: A Big Picture,2300 W MASTER ST,19121,N/A,,HIGH,'09-09',122,,DISTRICT
-75.147679620611598,40.051747480390368,813,126515001,3835,7130,"WAGNER, GEN. LOUIS MIDDLE SCH.",General Louis Wagner School,1701 CHELTEN AVE,19126,215-400-3560,,MIDDLE,'06-08',517,,DISTRICT
-75.167700600596731,39.964919390550811,814,126515001,7225,2490,"WARING, LAURA W. SCHOOL",Laura W. Waring School,1801 GREEN ST,19130,215-400-7560,,ELEMENTARYMIDDLE,'00-08',290,,DISTRICT
-75.026443882043253,40.106188902123371,815,126515001,6527,8030,"WASHINGTON, GEORGE HIGH SCHOOL",George Washington High School,10175 BUSTLETON AVE,19116,215-400-3100,,HIGH,'09-12',1279,,DISTRICT
-75.117969000523331,40.035479000355913,816,126515001,7663,7370,"WASHINGTON, GROVER JR. MIDDLE","Grover Washington, Jr. School",201 E OLNEY AVE,19120,215-400-3820,,MIDDLE,'05-08',536,,DISTRICT
-75.211179000315767,39.966206000142527,817,126515001,3615,1420,"WASHINGTON, MARTHA SCHOOL",Martha Washington School,766 N 44TH ST,19104,215-400-7770,,ELEMENTARYMIDDLE,'00-08',352,,DISTRICT
-75.104619975525111,39.99624954525521,818,126515001,5124,5590,"WEBSTER, JOHN H. SCHOOL",John H. Webster School,3400 FRANKFORD AVE,19134,215-400-7170,,ELEMENTARY,'00-05',804,,DISTRICT
-75.139321948242596,39.986500511555739,819,126515001,3703,5420,"WELSH, JOHN SCHOOL",John Welsh School,2331 N 4TH ST,19133,215-400-7130,,ELEMENTARYMIDDLE,'00-08',381,,DISTRICT
-75.219654000407189,39.958110000223314,820,126515001,3860,1020,WEST PHILADELPHIA HIGH SCHOOL,West Philadelphia High School,4901 CHESTNUT ST,19139,215-400-7900,,HIGH,'09-12',482,,DISTRICT
-75.146598000536784,40.036705999838482,821,126515001,3728,6400,WIDENER MEMORIAL SCHOOL,Widener Memorial School,1450 W OLNEY AVE,19141,215-400-3710,,ELEMENTARYMIDDLEHIGH,'00-12',142,,DISTRICT
-75.115906999672731,39.993064999902309,822,126515001,6544,5440,"WILLARD, FRANCES E. SCHOOL",Frances E. Willard School,1930 E ELKHART ST,19134,215-400-7180,,ELEMENTARY,'00-04',733,,DISTRICT
-75.028222000182097,40.088287999916687,823,126515001,3803,8400,"FRANK, ANNE SCHOOL",Anne Frank School,2000 BOWLER ST,19115,215-400-3070,,ELEMENTARY,'00-05',1321,,DISTRICT
-75.085153299291974,40.02162926358119,824,126515001,3850,7010,FRANKFORD HIGH SCHOOL,Frankford High School,5000 OXFORD AVE,19124,215-400-7200,,HIGH,'09-12',960,,DISTRICT
-75.162752999690596,39.965048999657192,825,126515001,6822,2290,FRANKLIN LEARNING CENTER,Franklin Learning Center,616 N 15TH ST,19130,215-400-7570,,HIGH,'09-12',888,,DISTRICT
-75.161639999399156,39.963529999860292,826,126515001,3851,2010,"FRANKLIN, BENJAMIN HIGH SCHOOL",Benjamin Franklin High School,550 N BROAD ST,19130,215-400-7600,,HIGH,'09-12',511,,DISTRICT
-75.104293077970311,40.042448242956205,827,126515001,7231,7280,"FRANKLIN, BENJAMIN SCHOOL",Benjamin Franklin School,5735 RISING SUN AVE,19120,215-400-3760,,ELEMENTARYMIDDLE,'00-08',982,,DISTRICT
-75.150584999714226,39.923761999517914,828,126515001,3818,2160,"FURNESS, HORACE HIGH SCHOOL",Furness High School,1900 S 3RD ST,19148,215-400-8300,,HIGH,'09-12',673,,DISTRICT
-75.180763381533694,39.984374919879912,829,126515001,3625,4530,"GIDEON, EDWARD SCHOOL",Edward Gideon School,2817 W GLENWOOD AVE,19121,215-400-7360,,ELEMENTARYMIDDLE,'00-08',285,,DISTRICT
-75.182956411447307,39.921831576159803,830,126515001,7664,2410,GIRARD ACADEMIC MUSIC PROGRAM,Girard Academic Music Program,2136 W RITNER ST,19145,215-400-8230,,MIDDLEHIGH,'05-12',616,,DISTRICT
-75.176810460064885,39.924556524639172,831,126515001,3776,2320,"GIRARD, STEPHEN SCHOOL",Stephen Girard School,1800 SNYDER AVE,19145,215-400-8180,,ELEMENTARY,'00-04',535,,DISTRICT
-75.145225159317803,40.038704913442551,832,126515001,3843,6050,"GIRLS, PHILA HIGH SCHOOL FOR",Philadelphia High School for Girls,1400 W OLNEY AVE,19141,215-400-3700,,HIGH,'09-12',993,,DISTRICT
-75.238133070040561,39.992554908740424,833,126515001,3668,4280,"GOMPERS, SAMUEL SCHOOL",Samuel Gompers School,5701 WYNNEFIELD AVE,19131,215-400-7250,,ELEMENTARYMIDDLE,'00-08',340,,DISTRICT
-75.0576232526914,40.095733370402932,834,126515001,4726,8430,"GREENBERG, JOSEPH SCHOOL",Joseph Greenberg School,600 SHARON LN,19115,215-400-3080,,ELEMENTARYMIDDLE,'00-08',795,,DISTRICT
-75.177392059757622,39.952272340409074,835,126515001,5186,2470,"GREENFIELD, ALBERT M. SCHOOL",Albert M. Greenfield School,2200 CHESTNUT ST,19103,215-400-7810,,ELEMENTARYMIDDLE,'00-08',620,,DISTRICT
-75.126805265198072,39.981140050871765,836,126515001,5120,5300,"HACKETT, HORATIO B. SCHOOL",Horatio B. Hackett School,2161 E YORK ST,19125,215-400-7470,,ELEMENTARY,'00-05',370,,DISTRICT
-75.235543000260947,39.955438000419363,837,126515001,5185,1290,"HAMILTON, ANDREW SCHOOL",Andrew Hamilton School,5640 SPRUCE ST,19139,215-400-7650,,ELEMENTARYMIDDLE,'00-08',534,,DISTRICT
-74.989192892495112,40.067372298813368,838,126515001,5041,8770,HANCOCK DEMONSTRATION SCHOOL,John Hancock Demonstration School,3700 MORRELL AVE,19114,215-400-3120,,ELEMENTARYMIDDLE,'00-08',742,,DISTRICT
-75.07456080961677,40.01291693948756,839,126515001,7242,7110,"HARDING, WARREN G. MIDDLE SCH",Warren G. Harding School,2000 WAKELING ST,19124,215-400-3990,,MIDDLE,'06-08',762,,DISTRICT
-75.230595080022283,39.947365169991912,840,126515001,6528,1300,"HARRINGTON, AVERY D. SCHOOL",Avery D. Harrington School,5300 BALTIMORE AVE,19143,215-400-7920,,ELEMENTARYMIDDLE,'00-08',493,,DISTRICT
-75.144977833607783,39.989245640073882,841,126515001,5125,5320,"HARTRANFT, JOHN F. SCHOOL",John F. Hartranft School,720 W CUMBERLAND ST,19133,215-400-7090,,ELEMENTARYMIDDLE,'00-08',513,,DISTRICT
-75.196587759288946,40.046257709904637,842,126515001,3712,6250,"HENRY, CHARLES W. SCHOOL",Charles W. Henry School,601 CARPENTER LN,19119,215-400-3480,,ELEMENTARYMIDDLE,'00-08',480,,DISTRICT
-75.229727000370033,39.977851999575478,843,126515001,5187,4300,"HESTON, EDWARD SCHOOL",Edward Heston School,1621 N 54TH ST,19131,215-400-7290,,ELEMENTARYMIDDLE,'00-08',531,,DISTRICT
-75.203603698872456,39.975254763890796,844,126515001,7903,1030,HIGH SCHOOL OF THE FUTURE,High School of the Future,4021 PARKSIDE AVE,19104,215-400-7790,,HIGH,'09-12',489,,DISTRICT
-75.175174375638534,40.071214298361951,845,126515001,7229,6460,HILL-FREEDMAN WORLD ACADEMY,Hill-Freedman World Academy,1100 E MT PLEASANT AVE,19150,215-400-3530,,MIDDLEHIGH,'06-12',641,,DISTRICT
-75.009108050841675,40.054988773676584,846,126515001,3766,8270,"HOLME, THOMAS SCHOOL",Thomas Holme School,9125 ACADEMY RD,19114,215-400-3130,,ELEMENTARY,'00-06',597,,DISTRICT
-75.102256890126398,40.008413123339821,847,126515001,3742,7300,"HOPKINSON, FRANCIS SCHOOL",Francis Hopkinson School,4001 L ST,19124,215-400-3970,,ELEMENTARYMIDDLE,'00-08',916,,DISTRICT
-75.194819995355971,40.059125265131229,848,126515001,3713,6260,"HOUSTON, HENRY H. SCHOOL",Henry H. Houston School,7300 RURAL LN,19119,215-400-3490,,ELEMENTARYMIDDLE,'00-08',380,,DISTRICT
-75.142111310620678,40.04113186949315,849,126515001,3743,7320,"HOWE, JULIA WARD SCHOOL",Julia W. Howe School,5800 N 13TH ST,19141,215-400-3650,,ELEMENTARY,'00-05',238,,DISTRICT
-75.132127887091244,39.987408378856841,850,126515001,3693,5330,"HUNTER, WILLIAM H. SCHOOL",William H. Hunter School,2400 N FRONT ST,19133,215-400-7110,,ELEMENTARYMIDDLE,'00-08',552,,DISTRICT
-75.163480999553244,39.934623000390125,851,126515001,3642,2510,"JACKSON, ANDREW SCHOOL",Andrew Jackson School,1213 S 12TH ST,19147,215-400-7970,,ELEMENTARYMIDDLE,'00-08',581,,DISTRICT
-75.203368285364093,40.074798004646084,852,126515001,3714,6270,JENKS ACADEMY ARTS & SCIENCES,Jenks Academy for Arts and Sciences,8301 GERMANTOWN AVE,19118,215-400-3360,,ELEMENTARYMIDDLE,'00-08',514,,DISTRICT
-75.168366999523812,39.918772999731694,853,126515001,7227,2520,"JENKS, ABRAM SCHOOL",Abram S. Jenks School,2501 S 13TH ST,19148,215-400-8240,,ELEMENTARY,'00-05',299,,DISTRICT
-75.111029210020519,40.012841219646909,854,126515001,7963,7150,JUNIATA PARK ACADEMY,Juniata Park Academy,801 E HUNTING PARK AVE,19124,215-400-7010,,ELEMENTARYMIDDLE,'00-08',1108,,DISTRICT
-75.148129349363074,39.963857529687395,855,126515001,3645,5480,"KEARNY, GEN. PHILIP SCHOOL",General Philip Kearny School,601 FAIRMOUNT AVE,19123,215-400-7590,,ELEMENTARYMIDDLE,'00-08',333,,DISTRICT
-75.180326889462464,39.980391729893064,856,126515001,3626,4560,"KELLEY, WILLIAM D. SCHOOL",William D. Kelley School,1601 N 28TH ST,19121,215-400-7370,,ELEMENTARYMIDDLE,'00-08',385,,DISTRICT
-75.172421493549763,40.025108213413247,857,126515001,5294,6470,"KELLY, JOHN B. SCHOOL",John B. Kelly School,5116 PULASKI AVE,19144,215-400-3580,,ELEMENTARY,'00-05',684,,DISTRICT
-75.154063469810808,40.005112619076954,858,126515001,3795,4360,KENDERTON ELEMENTARY,Kenderton Elementary School,1500 W ONTARIO ST,19140,215-400-8340,,ELEMENTARYMIDDLE,'00-08',457,,DISTRICT
-75.133406207203464,39.97730571330726,859,126515001,7852,5520,KENSINGTON CAPA,Kensington High School for Creative and Performing Arts,1901 N FRONT ST,19122,215-400-7400,,HIGH,'09-12',497,,DISTRICT
-75.128510422571836,39.984732618592268,860,126515001,7855,5550,KENSINGTON HEALTH SCIENCES,Kensington Health Sciences Academy,2463 EMERALD ST,19125,215-400-3600,,HIGH,'09-12',432,,DISTRICT
-75.126369083755577,39.984431605037059,861,126515001,8143,5700,KENSINGTON HIGH SCHOOL,Kensington High School,2501 CORAL ST,19125,215-400-7700,,HIGH,'09-12',598,,DISTRICT
-75.16050973592526,39.920883179728655,862,126515001,7228,2540,"KEY, FRANCIS SCOTT SCHOOL",Francis S. Key School,2230 S 8TH ST,19148,215-400-8250,,ELEMENTARY,'00-06',471,,DISTRICT
-75.161677855363649,40.056462024960481,863,126515001,6675,6060,"KING, MARTIN LUTHER HIGH SCH.",Martin Luther King High School,6100 STENTON AVE,19138,215-400-3500,,HIGH,'09-12',676,,DISTRICT
-75.156465999520393,39.930019999786367,864,126515001,3647,2580,"KIRKBRIDE, ELIZA B. SCHOOL",Eliza B. Kirkbride School,1501 S 7TH ST,19147,215-400-7980,,ELEMENTARYMIDDLE,'00-08',550,,DISTRICT
-75.266329000526682,39.975465000183682,865,126515001,7810,4320,"LAMBERTON,ROBERT E ELEMENTARY",Robert E. Lamberton School,7501 WOODBINE AVE,19151,215-400-7530,,ELEMENTARYMIDDLE,'00-08',597,,DISTRICT
-75.252746537405315,40.062307943666646,866,126515001,7811,6540,LANKENAU HIGH SCHOOL,Lankenau High School,201 SPRING LANE,19128,215-400-3420,,HIGH,'09-12',348,,DISTRICT
-75.058976000262859,40.020648000159603,867,126515001,3744,7330,"LAWTON, HENRY W. SCHOOL",Henry W. Lawton School,6101 JACKSON ST,19135,215-400-3340,,ELEMENTARY,'00-05',779,,DISTRICT
-75.216347000543891,39.954514999595609,868,126515001,6530,1340,"LEA, HENRY C.",Henry C. Lea School,4700 LOCUST ST,19139,215-400-7660,,ELEMENTARYMIDDLE,'00-08',556,,DISTRICT
-75.042525908457961,40.044088997096551,869,126515001,3845,8010,"LINCOLN, ABRAHAM HIGH SCHOOL",Abraham Lincoln High School,3201 RYAN AVE,19136,215-400-3300,,HIGH,'09-12',1671,,DISTRICT
-75.189613639260969,40.037084130488985,870,126515001,3717,6440,"LINGELBACH, ANNA L. SCHOOL",Anna L. Lingelbach School,6340 WAYNE AVE,19144,215-400-3630,,ELEMENTARYMIDDLE,'00-08',412,,DISTRICT
-75.212435834120654,39.96218479688843,871,126515001,4732,1470,"LOCKE, ALAIN SCHOOL",Alain Locke School,4550 HAVERFORD AVE,19139,215-400-7670,,ELEMENTARYMIDDLE,'00-08',447,,DISTRICT
-75.023637895536567,40.114008838269534,872,126515001,4961,8440,"LOESCHE, WILLIAM H. SCHOOL",William H. Loesche School,595 TOMLINSON RD,19116,215-400-3020,,ELEMENTARY,'00-05',852,,DISTRICT
-75.152059950587287,40.030853060231372,873,126515001,3718,6300,"LOGAN, JAMES SCHOOL",James Logan School,1700 LINDLEY AVE,19141,215-400-3670,,ELEMENTARY,'00-05',330,,DISTRICT
-75.232373160108068,39.940908229481025,874,126515001,6533,1350,"LONGSTRETH, WILLIAM C. SCHOOL",William C. Longstreth School,5700 WILLOWS AVE,19143,215-400-7870,,ELEMENTARYMIDDLE,'00-08',408,,DISTRICT
-75.128890061871701,40.040498626554594,875,126515001,7232,7350,"LOWELL, JAMES R. SCHOOL",James R. Lowell School,450 W NEDRO AVE,19120,215-400-3740,,ELEMENTARY,'00-04',769,,DISTRICT
-75.145853999859924,39.972723999643513,876,126515001,3694,5340,"LUDLOW, JAMES R. SCHOOL",James R. Ludlow School,550 W MASTER ST,19122,215-400-7430,,ELEMENTARYMIDDLE,'00-08',315,,DISTRICT
-75.087491159876336,40.014670314719389,877,126515001,3797,7360,"MARSHALL, JOHN SCHOOL",John Marshall School,4500 GRISCOM ST,19124,215-400-3950,,ELEMENTARY,'00-05',395,,DISTRICT
-75.134562464619862,40.030180161725838,878,126515001,7521,5500,"MARSHALL, THURGOOD SCHOOL",Thurgood Marshall School,5120 N 6TH ST,19120,215-400-3770,,ELEMENTARYMIDDLE,'00-08',805,,DISTRICT
-75.112082762940844,39.992447015084394,879,126515001,3842,5060,"MASTBAUM, JULES E. HIGH SCHOOL",Jules E. Mastbaum Area Vocational Technical High School,3116 FRANKFORD AVE,19134,215-400-7220,,HIGH,'09-12',787,,DISTRICT
-75.165732782731936,39.963450899886489,880,126515001,3808,2140,"MASTERMAN,JULIA R. HIGH SCHOOL",Julia R. Masterman School,1699 SPRING GARDEN ST,19130,215-400-7580,,MIDDLEHIGH,'05-12',1198,,DISTRICT
-75.051920381490689,40.039341878280133,881,126515001,3769,8300,MAYFAIR SCHOOL,Mayfair School,3001 PRINCETON AVE,19149,215-400-3280,,ELEMENTARYMIDDLE,'00-08',1653,,DISTRICT
-75.152366532041,39.944598132546751,882,126515001,3648,2340,"MC CALL, GEN. GEORGE A. SCHOOL",General George A. McCall School,325 S 7TH ST,19106,215-400-7840,,ELEMENTARYMIDDLE,'00-08',727,,DISTRICT
-75.137573999429691,40.015177999505823,883,126515001,6534,7380,"MC CLURE, ALEXANDER K. SCHOOL",Alexander K. McClure School,600 W HUNTING PARK AVE,19140,215-400-3870,,ELEMENTARY,'00-05',620,,DISTRICT
-75.194765250793637,39.966549632801261,884,126515001,3611,1360,"MC MICHAEL, MORTON SCHOOL",Morton McMichael School,3543 FAIRMOUNT AVE,19104,215-400-7750,,ELEMENTARYMIDDLE,'00-08',370,,DISTRICT
-75.17470002326219,40.081411720109507,885,126515001,3719,6310,"MCCLOSKEY, JOHN F. SCHOOL",John F. McCloskey School,8500 PICKERING ST,19150,215-400-3380,,ELEMENTARYMIDDLE,'00-08',456,,DISTRICT
-75.181793000140019,39.929592000501103,886,126515001,3629,2370,"MCDANIEL, DELAPLAINE SCHOOL",Delaplaine McDaniel School,1801 S 22ND ST,19145,215-400-8220,,ELEMENTARYMIDDLE,'00-08',440,,DISTRICT
-75.141248659563431,39.983051277898156,887,126515001,5293,5350,"MCKINLEY, WILLIAM SCHOOL",William McKinley School,2101 N ORKNEY ST,19122,215-400-7440,,ELEMENTARYMIDDLE,'00-08',448,,DISTRICT
-75.164717999752583,39.978586999667151,888,126515001,3630,4570,"MEADE, GEN. GEORGE G. SCHOOL",General George G. Meade School,1600 N 18TH ST,19121,215-400-7310,,ELEMENTARYMIDDLE,'00-08',375,,DISTRICT
-75.044206000058338,40.045606999609369,889,126515001,6768,8140,"MEEHAN, AUSTIN MIDDLE SCHOOL",Austin Meehan School,3001 RYAN AVE,19152,215-400-3240,,MIDDLE,'07-08',593,,DISTRICT
-75.150998323848754,39.939662193890889,890,126515001,3649,2380,"MEREDITH, WILLIAM M. SCHOOL",William M. Meredith School,725 S 5TH ST,19147,215-400-7990,,ELEMENTARYMIDDLE,'00-08',573,,DISTRICT
-75.191609025359924,40.013529959142758,891,126515001,3720,6320,"MIFFLIN, THOMAS SCHOOL",Thomas Mifflin School,3624 CONRAD ST,19129,215-400-3830,,ELEMENTARYMIDDLE,'00-08',308,,DISTRICT
-75.22329100013107,39.936814270280735,892,126515001,3798,1370,MITCHELL ELEMENTARY SCHOOL,S. Weir Mitchell School,5500 KINGSESSING AVE,19143,215-400-7880,,ELEMENTARYMIDDLE,'00-08',522,,DISTRICT
-75.135912550414687,39.974732104964382,893,126515001,3697,5370,"MOFFET, JOHN SCHOOL",John Moffet School,127 W OXFORD ST,19122,215-400-7390,,ELEMENTARY,'00-05',311,,DISTRICT
-75.076912000420648,40.049135000448537,894,126515001,3770,8310,"MOORE, J. HAMPTON SCHOOL",J. Hampton Moore School,6900 SUMMERDALE AVE,19111,215-400-3180,,ELEMENTARY,'00-05',1199,,DISTRICT
-75.178660000111776,39.975438999593635,895,126515001,4868,2390,"MORRIS, ROBERT SCHOOL",Robert Morris School,2600 W THOMPSON ST,19121,215-400-7320,,ELEMENTARYMIDDLE,'00-08',300,,DISTRICT
-75.129505634189528,40.029500987763711,896,126515001,3749,7390,"MORRISON, ANDREW J. SCHOOL",Andrew J. Morrison School,5100 N 3RD ST,19120,215-400-3780,,ELEMENTARYMIDDLE,'00-08',692,,DISTRICT
-75.226904023009411,39.923666228150346,897,126515001,6535,1380,"MORTON, THOMAS G. SCHOOL",Thomas G. Morton School,2501 S 63RD ST,19142,215-400-8160,,ELEMENTARY,'00-05',639,,DISTRICT
-75.241844220168531,39.9445319905671,898,126515001,7815,1190,MOTIVATION HIGH SCHOOL,Motivation High School,5900 BALTIMORE AVE,19143,215-400-7930,,HIGH,'09-12',412,,DISTRICT
-75.135552340343779,40.001159884578314,899,126515001,7522,5680,"MUNOZ-MARIN, HON LUIS SCHOOL",Honorable Luis Munoz-Marin School,3300 N 3RD ST,19140,215-400-3920,,ELEMENTARYMIDDLE,'00-08',607,,DISTRICT
-75.215814793441382,39.964435948241473,900,126515001,7022,1580,MYA-MIDDLE YEARS ALTERNATIVE,Middle Years Alternative School,4725 FAIRMOUNT AVE,19139,215-400-7720,,MIDDLE,'05-08',276,,DISTRICT
-75.153830000111384,39.936694000247478,901,126515001,3650,2590,"NEBINGER, GEORGE W. SCHOOL",George W. Nebinger School,601 CARPENTER ST,19147,215-400-8110,,ELEMENTARYMIDDLE,'00-08',376,,DISTRICT
-75.071183549619633,40.055644089913621,902,126515001,3855,8020,NORTHEAST HIGH SCHOOL,Northeast High School,1601 COTTMAN AVE,19111,215-400-3200,,HIGH,'09-12',3366,,DISTRICT
-75.12087263396829,40.031101260171262,903,126515001,3750,7400,OLNEY ELEMENTARY SCHOOL,Olney School,5301 N WATER ST,19120,215-400-3790,,ELEMENTARYMIDDLE,'00-08',873,,DISTRICT
-75.254482769187049,39.974129573777269,904,126515001,6960,4480,OVERBROOK EDUCATIONAL CENTER,Overbrook Educational Center,6722 LANSDOWNE AVE,19151,215-400-7540,,ELEMENTARYMIDDLE,'00-08',259,,DISTRICT
-75.245846109323367,39.982258059580118,905,126515001,7472,4370,OVERBROOK ELEMENTARY SCHOOL,Overbrook School,2032 N 62ND ST,19151,215-400-7520,,ELEMENTARYMIDDLE,'00-08',242,,DISTRICT
-75.238556000222388,39.981028000136703,906,126515001,3857,4020,OVERBROOK HIGH SCHOOL,Overbrook High School,5898 LANCASTER AVE,19131,215-400-7300,,HIGH,'09-12',556,,DISTRICT
-75.160674769330441,39.968101409775834,907,126510004,7685,3335,PEOPLE FOR PEOPLE,People for People Charter School,800 N BROAD ST,19130,215-763-7060,,ELEMENTARYMIDDLEHIGH,'00-11',,,CHARTER
-75.21572624027749,39.961365650292947,908,,,2530,PHILA JUV JUSTICE SVCS CTR,Phila. Juv. Justice Services Ctr. School,91 N 48TH ST,19139,215-471-2275,,MIDDLEHIGH,'06-12',,,DISTRICT
-75.125996789640354,40.014255249442115,909,126515001,,8470,PHILA LEARNING ACADEMY-NORTH,Philadelphia Learning Academy North,4224 N FRONT ST,19140,215-400-9050,,HIGH,'08-12',,,DISTRICT
-75.210448922259431,39.969457749436252,910,126515001,8121,8460,PHILA LEARNING ACADEMY-SOUTH,Philadelphia Learning Academy South,4300 WESTMINSTER AVE,19104,215-400-9080,,HIGH,'09-12',,,DISTRICT
-75.126364270000124,40.015203576226469,911,,,3200,PHILA LEARNING ACAD-NORTH EOP,PLA North - Hunting Park EOP,4224 N FRONT ST,19140,215-400-9050,,HIGH,'09-12',,,DISTRICT
-75.21046305268419,39.969531733948443,912,,,3800,PHILA LEARNING ACAD-SOUTH EOP,PLA South EOP,4300 WESTMINSTER AVE,19104,215-400-9080,,HIGH,'09-12',,,DISTRICT
-75.171508554606532,39.917825753985944,913,126513400,7647,3336,PHILA PERFORMING ARTS-BROAD ST,Philadelphia Performing Arts: A String Theory Charter School,2600 S BROAD ST,19145,215-551-4000,,ELEMENTARYMIDDLEHIGH,'02-4',,,CHARTER
-75.010719239968793,40.10239058427571,914,126513280,7587,3322,PHILADELPHIA ACADEMY,Philadelphia Academy Charter School,11000 ROOSEVELT BLVD,19116,215-676-8320,,ELEMENTARYMIDDLEHIGH,'00-8',,,CHARTER
-75.086596413730376,40.024804055845188,915,126515691,,3422,PHILADELPHIA CHARTER FOR ARTS,The Philadelphia Charter School for Arts and Sciences,1197 HAWORTH ST,19124,215-537-2520,,ELEMENTARYMIDDLE,'00-08',,,CHARTER
-75.165110819550804,39.950607890269545,916,126510009,7737,3358,PHILADELPHIA ELECTRICAL AND,Philadelphia Electrical and Technology Charter School,1420 CHESTNUT ST,19102,267-514-1823,,HIGH,'09-12',,,CHARTER
-75.24515327067742,39.916564369589182,917,126510016,7828,3378,PHILADELPHIA MONTESSORI,Philadelphia Montessori Charter School,2227 ISLAND AVE,19142,215-365-4011,,ELEMENTARY,'00-06',,,CHARTER
-75.158720999418222,39.972966000493003,918,,,3840,PHILADELPHIA OIC WORKFORCE ACADEMY,Philadelphia OIC Workforce Academy,1231 N BROAD ST,19122,215-236-7700,,HIGH,'09-12',,,CONTRACTED
-75.186656859590983,39.928453550373249,919,126512960,7540,3313,PREPARATORY CHARTER SCHOOL,"Preparatory Charter School of Mathematics, Science, Technology and Careers",1928 POINT BREEZE AVE,19145,215-334-6144,,HIGH,'09-12',,,CHARTER
-75.162644049543914,39.961021589462945,920,,,8900,RE-ENGAGEMENT CENTER,Re-Engagement Center,440 N BROAD ST,19130,215-400-6700,,HIGH,'09-12',,,DISTRICT
-75.218648013235978,39.928301247181906,921,126510008,7684,3359,RICHARD ALLEN PREP,Richard Allen Preparatory Charter School,2601 S 58TH ST,19143,215-878-1544,,MIDDLE,'05-08',,,CHARTER
-75.171550639418683,39.955949219512149,922,126510001,7677,3360,RUSSELL BYERS CHARTER SCHOOL,Russell Byers Charter School,1911 ARCH ST,19103,215-972-1700,,ELEMENTARYMIDDLE,'00-07',,,CHARTER
-75.128641000626516,39.98708200027324,923,114514135,8083,3399,SANKOFA FREEDOM ACADEMY,Sankofa Freedom Academy Charter School,2501 KENSINGTON AVE,19125,215-288-2001,,ELEMENTARYMIDDLEHIGH,'00-12',,,CHARTER
-75.169106500688954,39.923898700521157,924,126515001,,3880,SOUTH PHILA HIGH SCHOOL EOP,South Philadelphia High School EOP,2101 S BROAD ST,19148,215-400-8400,,HIGH,'09-12',,,DISTRICT
-75.242600000076536,39.918098999539374,925,108515107,7960,3392,SOUTHWEST LEADERSHIP ACADEMY,Southwest Leadership Academy Charter School,7101 PASCHALL AVE,19142,215-729-1939,,ELEMENTARYMIDDLE,'00-08',,,CHARTER
-75.065983530148173,40.066842219651178,926,192518422,8126,3404,TACONY ACADEMY CHARTER SCHOOL,Tacony Academy Charter School,1330 RHAWN ST,19111,215-742-5100,,ELEMENTARYMIDDLEHIGH,'00-08',,,CHARTER
-75.155669000040916,39.986869000552019,927,126511530,,3441,TECH FREIRE CHARTER SCHOOL,TECH Freire Charter School,2221 N BROAD ST,19132,267-507-1111,,HIGH,'09-11',,,CHARTER
-75.197671839422981,39.935177224614939,928,126512674,3617,3424,UNIVERSAL ALCORN CHARTER,Universal Charter School at Alcorn,3200 DICKINSON ST,19146,215-952-6219,,ELEMENTARYMIDDLE,'00-08',,,CHARTER
-75.198590000605364,39.933736999621296,929,126519434,8195,3417,UNIVERSAL AUDENRIED CHARTER,Universal Charter School at Audenried,3301 TASKER ST,19145,215-952-4801,,HIGH,'09-12',,,CHARTER
-75.236020000369251,39.973739000260046,930,168513758,8145,3410,UNIVERSAL CHARTER @ BLUFORD,Universal Charter School at Bluford,5720 MEDIA ST,19131,215-581-5502,,ELEMENTARY,'00-06',,,CHARTER
-75.232833287435383,39.965336030731798,931,103519376,8146,3411,UNIVERSAL CHARTER @ DAROFF,Universal Charter School at Daroff,5630 VINE ST,19139,215-471-2905,,ELEMENTARYMIDDLE,'00-08',,,CHARTER
-75.105172192956644,40.034372078162818,932,126517442,8251,3421,UNIVERSAL CREIGHTON CHARTER,Universal Charter School at Creighton,5401 TABOR AVE,19120,215-537-2531,,ELEMENTARYMIDDLE,'00-08',,,CHARTER
-75.167939999985492,39.940931000148403,933,126513210,7580,3326,UNIVERSAL INSTITUTE,Universal Institute Charter School,800 S 15TH ST,19146,215-732-2876,,ELEMENTARYMIDDLE,'00-08',,,CHARTER
-75.185706999769124,39.925836999616436,934,126513415,8196,3418,UNIVERSAL VARE CHARTER SCHOOL,Universal Charter School at Vare,2100 S 24TH ST,19145,215-952-8611,,MIDDLE,'05-08',,,CHARTER
-75.14487600001074,40.032189999910351,935,,,3170,VISIONQUEST NATIONAL LTD.,VisionQuest,5201 OLD YORK RD,19141,215-621-8975,,MIDDLEHIGH,'06-12',,,CONTRACTED
-75.163413408632707,40.059512002757835,936,126513020,7548,3314,WEST OAK LANE CHARTER SCHOOL,West Oak Lane Charter School,7115 STENTON AVE,19138,215-927-7995,,ELEMENTARYMIDDLE,'00-08',,,CHARTER
-75.254111000034158,39.970666999745291,937,126510006,7722,3357,WEST PHILA ACHIEVEMENT,West Philadelphia Achievement Charter School,6701 CALLOWHILL ST,19151,215-476-6471,,ELEMENTARY,'00-05',,,CHARTER
-75.172594732258304,40.015632888510474,938,126510007,7724,3362,WISSAHICKON CHARTER SCHOOL,Wissahickon Charter School,4700 WISSAHICKON AVE,19144,267-338-1020,,ELEMENTARYMIDDLE,'00-08',,,CHARTER
-75.158632869796634,39.972906490321407,939,,,8450,YES PHILLY,YES Philly,1231 N BROAD ST,19122,215-769-0340,,HIGH,'09-12',,,CONTRACTED
-75.148178293647376,39.96769923679323,940,126513250,7584,3329,YOUNG SCHOLARS CHARTER SCHOOL,Young Scholars Charter School,900 N MARSHALL ST,19123,215-232-9727,,MIDDLE,'06-08',,,CHARTER
-75.158632869796634,39.972906490321407,941,126512870,7513,3304,YOUTHBUILD PHILA. CHARTER,YouthBuild Philadelphia Charter School,1231 N BROAD ST - 3RD FLR,19122,215-627-8671,,HIGH,'12-12',,,CHARTER
-75.170245181707926,39.920237230987617,942,,,,Philadelphia Performing Arts,Philadelphia Performing Arts,2407 S BROAD ST,19148,215-278-2460,,Elementary,'00-01',,Charter,Charter
-75.237914224116082,39.961315560112958,943,226510039,,,63rd St Multicultural Academy of Academic Excellence,63rd St Multicultural Academy of Academic Excellence,5828 Market St,19131,(215) 240-6721,,Elem/Mid/High,Pre K-12,,Private,Private
-75.21215019976384,40.026225347842953,944,326514508,,,CB Community Schools,CB Community Schools,4101 Freeland Ave,19128,215-779-7217,,,,,Private,Private
-75.089527672986392,40.008342926106842,945,226511072,,,Christ Independent Baptist Academy,Christ Independent Baptist Academy,1618 Womrath St,19124,215-288-5667,,,,,Private,Private
-75.176339097194841,39.971573313443251,946,226517510,,,City School at Fairmount,City School at Fairmount,860 N 24th St,19130,215-769-5363,,,,,Private,Private
-75.12629332979391,40.01547618096393,947,326512995,,,Community Council Learning Academy,Community Council Learning Academy,4224 N Front St,19140,215-456-0168,,,,,Private,Private
-75.239504573098557,39.971315614681743,948,226513837,,,Creative Minds Christian Academy,Creative Minds Christian Academy,6000 W Thompson St,19151,215-473-4482,,,,,Private,Private
-75.175884423896264,39.958908365422658,949,226519494,,,Kumon Math and Reading Philadelphia,Kumon Math and Reading Philadelphia,238 N 22nd St,19103,215-564-6284,,,,,Private,Private
-75.027056384898671,40.078624240908511,950,226511879,,,Kumon of Philadelphia- Grant Ave,Kumon of Philadelphia- Grant Ave,2550 Grant Ave,19114,215-613-1002,,,,,Private,Private
-75.237935206666791,40.064394961809995,951,226515488,,,Mathnasium of Andorra,Mathnasium of Andorra,8500 Henry Ave,19128,267-437-2388,,,,,Private,Private
-75.119800485239551,39.982005161239869,952,326514352,,,NHS School St Annes,NHS School St Annes,2343 E Tucker St,19125,215-423-0390,,,,,Private,Private
-75.188802424465464,40.058268586640025,953,326516627,,,One on One Tutoring Service,One on One Tutoring Service,7047 Germantown Ave,19119,(215) 842-0400,,,,,Private,Private
-75.218879088843437,40.037011779617757,954,226514088,,,Roxborough Christian School,Roxborough Christian School,6301 Ridge Ave,19128,(215) 482-0293,,,,,Private,Private
-75.244234284878146,40.059133865773845,955,326518538,,,Schuylkill Center for Environmental Education,Schuylkill Center for Environmental Education,8480 Hagys Mill Rd,19128,(215) 482-7300,,,,,Private,Private
-75.21982057707649,40.025070587897865,956,326510179,,,YALE School of Philadelphia,YALE School of Philadelphia,135 Rector St,19127,(609) 654-7222,,,,,Private,Private
-75.069085999493851,40.052367000050992,957,126515001,7253,8120,"WILSON, WOODROW MIDDLE SCHOOL",Woodrow Wilson School,1800 COTTMAN AVE,19111,215-400-3190,,MIDDLE,'06-08',1353,,DISTRICT
-75.177496522662423,39.990271221044217,958,126515001,,4470,"WRIGHT, RICHARD R. SCHOOL",Richard R. Wright School,2700 W DAUPHIN ST,19132,215-400-7030,,ELEMENTARY,'00-05',347,,DISTRICT
-75.075371174327302,40.030112192689018,959,126515001,7233,7460,"ZIEGLER, WILLIAM H. SCHOOL",William H. Ziegler School,5935 SAUL ST,19149,215-400-3260,,ELEMENTARYMIDDLE,'00-08',538,,DISTRICT
-75.247859999926121,39.984296000493671,960,126510015,7825,3379,AD PRIMA CHARTER SCHOOL,Ad Prima Charter School,1922 N 63RD ST,19151,267-403-2953,,ELEMENTARYMIDDLE,'00-08',,,CHARTER
-75.165452263214505,39.979794594130688,961,126512990,7543,3315,ALLIANCE FOR PROGRESS CHARTER,Alliance For Progress Charter School,1821 N CECIL B MOORE AVE,19121,215-232-4892,,ELEMENTARYMIDDLE,'00-3',,,CHARTER
-75.130853075871428,40.013121538645848,962,104510394,8031,3395,ANTONIA PANTOJA CHARTER SCHOOL,Antonia Pantoja Charter School,4101 N AMERICAN ST,19140,215-329-2733,,ELEMENTARYMIDDLE,'00-08',,,CHARTER
-75.152249000714392,39.948891999853288,963,126513190,7578,3317,ARCHITECTURE & DESIGN CHARTER,Architecture and Design Charter School,105 S 7TH ST,19106,215-351-2900,,HIGH,'09-12',,,CHARTER
-75.125644442055531,39.998729891783611,964,133513315,8149,3406,ASPIRA CHARTER @ STETSON,Aspira Charter School at Stetson,3200 B ST,19134,215-291-4720,,MIDDLE,'05-08',,,CHARTER
-75.123807999634636,40.028771999607997,965,126513452,8205,3414,ASPIRA OLNEY CHARTER HIGH,Aspira Charter School at Olney,100 W DUNCANNON AVE,19120,215-456-3014,,HIGH,'09-12',,,CHARTER
-75.204870929778579,39.966964840481261,966,126510010,7750,3368,BELMONT ELEMENTARY CHARTER,Belmont Charter School,4030 BROWN ST,19104,215-823-8208,,ELEMENTARYMIDDLE,'00-09',,,CHARTER
-75.233748509609683,39.951725580087384,967,185515523,7981,3388,BOYS LATIN OF PHILA CHARTER,Boys Latin of Philadelphia Charter School,5501 CEDAR AVE,19143,215-387-5149,,MIDDLEHIGH,'06-12',,,CHARTER
-75.177657999450091,39.978133999611188,968,,,2310,CAMELOT ACADEMY,Camelot Academy,1435 N 26TH ST,19121,215-684-5080,,MIDDLEHIGH,'06-12',,,CONTRACTED
-75.126608154383987,40.015239852378805,969,,8120,3820,CAMELOT ACADEMY EAST,Camelot Academy East,4224 N FRONT ST,19140,267-335-4764,,MIDDLEHIGH,'07-12',,,CONTRACTED
-75.158411634008047,39.938882497515699,970,126513160,7575,3306,CHRISTOPHER COLUMBUS CHARTER,Christopher Columbus Charter School,916 CHRISTIAN ST,19147,215-389-3732,,ELEMENTARYMIDDLE,'00-05',,,CHARTER
-75.106690610887313,40.004662849384253,971,126512840,7510,3301,COMMUNITY ACADEMY OF PHILA,Community Academy of Philadelphia Charter School,1100 E ERIE AVE,19124,215-533-6700,,ELEMENTARYMIDDLEHIGH,'00-12',,,CHARTER
-75.125996789640354,40.014255249442115,972,,,3190,CROSSROADS @ HUNTING PARK,Crossroads at Hunting Park,4224 N FRONT ST,19140,215-400-9060,,ELEMENTARY,,,,DISTRICT
-75.210523140467942,39.969404051186885,973,,,8690,CROSSROADS ACCELERATED ACADEMY,Crossroads Accelerated Academy,4300 WESTMINSTER AVE,19104,215-400-9070,,MIDDLE,'07-09',,,DISTRICT
-75.121929003438765,40.046670833337181,974,126513100,7564,3307,DE HOSTOS CHARTER SCHOOL,Eugenio Maria De Hostos Charter School,6301 N 2ND ST,19120,215-324-7012,,ELEMENTARYMIDDLE,'00-08',,,CHARTER
-75.214054561531569,39.977347980001703,975,126510011,7775,3372,DISCOVERY CHARTER SCHOOL,Discovery Charter School,4700 PARKSIDE AVE,19131,215-879-8182,,ELEMENTARYMIDDLE,'00-08',,,CHARTER
-75.169574649740099,39.984594370889049,976,126518547,8150,3412,DOUGLASS MASTERY CHARTER,Mastery Charter School at Douglass,2118 W NORRIS ST,19121,215-684-5063,,ELEMENTARYMIDDLE,'00-08',,,CHARTER
-75.183476000294831,40.012164999717925,977,177518712,8127,3397,EASTERN UNIVERSITY ACADEMY,Eastern University Academy Charter School,3300 HENRY AVE,19129,215-769-3131,,MIDDLEHIGH,'07-12',,,CHARTER
-75.134106459657829,39.984969679618928,978,,,3510,EL CENTRO DE ESTUDIANTES,El Centro de Estudiantes (Big Picture),126 W DAUPHIN ST,19133,267-687-1172,,HIGH,'09-12',,,CONTRACTED
-75.132650465480026,40.014939500986138,979,126513440,7665,3333,ESPERANZA ACADEMY CHARTER,Esperanza Academy Charter School,301 W HUNTING PARK AVE,19140,215-457-3667,,ELEMENTARYMIDDLEHIGH,"'01, 06-12'",,,CHARTER
-75.177657999450091,39.978133999611188,980,,,8080,EXCEL ACADEMY NORTH,Excel Academy North,1435 N 26TH ST,19121,215-684-5080,,HIGH,'09-12',,,CONTRACTED
-75.1025194403922,40.026081430311422,981,,,3290,EXCEL ACADEMY SOUTH,Excel Academy South,4641 ROOSEVELT BLVD,19124,215-904-6254,,HIGH,'09-12',,,CONTRACTED
-75.210579633832708,39.969492135783049,982,,,3040,EXCEL MIDDLE YEARS ACADEMY,Excel Middle Years Academy,4300 WESTMINSTER AVE,19104,N/A,,MIDDLE,'06-08',,,CONTRACTED
-75.082406190110717,40.007199909614869,983,100510000,7744,3364,FIRST PHILADELPHIA CHARTER,First Philadelphia Preparatory Charter School,4300 TACONY ST,19124,215-743-3100,,ELEMENTARYMIDDLEHIGH,'00-12',,,CHARTER
-75.156122560022482,39.958983687266603,984,126510021,7857,3384,FOLK ARTS CULTURAL TREASURES,Folk Arts-Cultural Treasures Charter School,1023 CALLOWHILL ST,19123,215-569-2600,,ELEMENTARYMIDDLE,'00-08',,,CHARTER
-75.161639999399156,39.963529999860292,985,126515001,,3210,FRANKLIN HIGH SCHOOL EOP,Ben Franklin High School EOP,550 N BROAD ST,19130,215-400-7600,,HIGH,'09-12',,,DISTRICT
-75.06661100062739,40.00733700026472,986,126513450,7666,3331,FRANKLIN TOWNE CHARTER SCHOOL,Franklin Towne Charter High School,5301 TACONY ST,19137,215-289-5000,,HIGH,'09-12',,,CHARTER
-75.074724339315821,39.99551599039097,987,147513703,8123,3403,FRANKLIN TOWNE ELEMENTARY,Franklin Towne Charter Elementary School,4259 RICHMOND ST,19137,215-289-3389,,ELEMENTARYMIDDLE,'00-08',,,CHARTER
-75.174422589503223,39.952472889890373,988,126513270,7586,3318,FREIRE CHARTER SCHOOL,Freire Charter School,2027 CHESTNUT ST,19103,215-557-8555,,MIDDLEHIGH,'09-12',,,CHARTER
-75.226858330013684,39.953326909520037,989,126518004,,3428,G.L.A. CHARTER @ HUEY,Global Leadership Academy at Huey,5200 PINE ST,19143,215-471-2978,,ELEMENTARYMIDDLE,'00-08',,,CHARTER
-75.166270460266944,39.962901699913466,990,,,8100,GATEWAY TO COLLEGE,Gateway to College - Community College of Philadelphia,1700 SPRING GARDEN ST RM M1-24,19130,215-751-8540,,HIGH,'09-12',,,CONTRACTED
-75.215435200479405,39.973359529888377,991,126513380,7639,3337,GLOBAL LEADERSHIP ACADEMY,Global Leadership Academy Charter School,4601 W GIRARD AVE,19131,267-295-5700,,ELEMENTARYMIDDLE,'00-08',,,CHARTER
-75.233996519426356,40.043094077111121,992,126510005,7748,3365,GREEN WOODS CHARTER SCHOOL,Green Woods Charter School,468 DOMINO LANE,19128,215-482-6337,,ELEMENTARYMIDDLE,'00-08',,,CHARTER
-75.252265521172248,39.973207434909142,993,126512850,7511,3302,HARAMBEE INSTITUTE OF SCIENCE,Harambee Institute of Science and Technology Charter School,640 N 66TH ST,19151,215-472-8770,,ELEMENTARYMIDDLE,'00-08',,,CHARTER
-75.226446999738073,39.94156200023474,994,126513290,7588,3323,HARDY WILLIAMS ACADEMY CHARTER,Mastery Charter School at Hardy Williams,5400 WARRINGTON AVE,19143,215-724-2343,,ELEMENTARYMIDDLEHIGH,'00-12',,,CHARTER
-75.154716999590164,40.049427000452631,995,126512980,7542,3309,IMHOTEP CHARTER SCHOOL,Imhotep Institute Charter High School,6201 N 21ST ST,19138,215-438-4140,,HIGH,'09-12',,,CHARTER
-75.169005620850612,39.944938877730557,996,126513510,7683,3341,INDEPENDENCE CHARTER SCHOOL,Independence Charter School,1600 LOMBARD ST,19146,215-238-8000,,ELEMENTARYMIDDLE,'00-08',,,CHARTER
-75.225814760550634,39.937357269702581,997,126512039,,3442,INDEPENDENCE CHARTER WEST,Independence Charter School West,5600 CHESTER AVE,19143,215-724-5600,,ELEMENTARY,'00-04',,,CHARTER
-75.212176312123262,39.974994739212917,998,126513070,,3308,INQUIRY CHARTER SCHOOL,Inquiry Charter School,1301 BELMONT AVE,19104,215-823-5541,,ELEMENTARY,'00-04',,,CHARTER
-75.044036710550159,40.027482752960971,999,182514568,7979,3389,KEYSTONE ACADEMY CHARTER,Keystone Academy Charter School,4521 LONGSHORE AVE,19135,215-332-2111,,ELEMENTARYMIDDLE,'00-08',,,CHARTER
-75.145187529596129,40.001399979791756,1000,126510017,7826,3350,KHEPERA CHARTER SCHOOL,Khepera Charter School,926 W SEDGLEY AVE,19119,215-843-1700,,ELEMENTARYMIDDLE,'00-08',,,CHARTER
-75.221200173495404,39.979873313288117,1001,126514864,,3353,KIPP DUBOIS CHARTER SCHOOL,KIPP DuBois Charter School,5070 PARKSIDE AVE,19131,215-307-3465,,HIGH,'09-12',,,CHARTER
-75.158039000608355,39.992038000247398,1002,126510013,7776,3370,KIPP PHILADELPHIA CHARTER,KIPP Philadelphia Charter School,2539 N 16TH ST,19132,267-758-2630,,ELEMENTARYMIDDLE,'00-08',,,CHARTER
-75.241844220168531,39.9445319905671,1003,126515492,,3443,KIPP WEST PHILA CHARTER SCHOOL,KIPP West Philadelphia Charter School,5900 BALTIMORE AVE,19143,267-787-5700,,ELEMENTARY,'00-01',,,CHARTER
-75.241844220168531,39.9445319905671,1004,172510793,8124,3396,KIPP WEST PHILA PREP CHARTER,KIPP West Philadelphia Preparatory Charter School,5900 BALTIMORE AVE,19143,215-294-2973,,MIDDLE,'05-08',,,CHARTER
-75.143849459575009,39.963813369604871,1005,126513110,7565,3310,LAB SCH OF COMMUNICAT'N & LANG,Laboratory Charter School of Communication and Languages,800 NORTH ORIANNA ST,19123,215-574-1680,,ELEMENTARYMIDDLE,'00-08',,,CHARTER
-75.111841999608217,39.994204000053749,1006,,,3240,LIGUORI ACADEMY-FORTIS,Liguori Academy-Fortis,1952 E ALLEGHENY AVE,19134,N/A,,HIGH,'09-12',,,CONTRACTED
-75.138443684267415,40.029411840675905,1007,126519476,8206,3419,LINDLEY ACADEMY CHARTER @ BIRNEY,Lindley Academy Charter @ Birney,900 LINDLEY AVE,19141,215-456-3000,,ELEMENTARYMIDDLE,'00-08',,,CHARTER
-75.094146000090547,40.00575700007694,1008,126513480,7672,3332,MARIANA BRACETTI ACADEMY,Mariana Bracetti Academy Charter School,1840 TORRESDALE AVE,19124,215-291-4436,,ELEMENTARYMIDDLEHIGH,'00-12',,,CHARTER
-75.068004616038962,40.007845171465206,1009,126510014,7777,3366,MARITIME ACADEMY CHARTER,Maritime Academy Charter School (MACHS),2275 BRIDGE ST,19137,215-535-4555,,ELEMENTARYMIDDLEHIGH,'02-12',,,CHARTER
-75.097237999744962,40.048219999481539,1010,126513117,,3440,MAST COMMUNITY CHARTER II,MaST Community Charter School II,6238 RISING SUN AVE,19111,215-398-7960,,ELEMENTARY,'00-04',,,CHARTER
-75.158721471266674,40.01093222755172,1011,126519644,8259,3420,MASTERY CHARTER @ CLEVELAND,Mastery Charter School at Cleveland,3701 N 19TH ST,19140,215-227-5042,,ELEMENTARYMIDDLE,'00-08',,,CHARTER
-75.150643165886621,39.995794591002301,1012,126511748,8208,3415,MASTERY CHARTER @ CLYMER,Mastery Charter School at Clymer,1201 W RUSH ST,19133,215-223-2243,,ELEMENTARY,'00-06',,,CHARTER
-75.156093232643499,40.014210309992215,1013,126513734,8207,3416,MASTERY CHARTER @ GRATZ HIGH,Mastery Charter School at Gratz,1798 W HUNTING PARK AVE,19140,215-227-4408,,MIDDLEHIGH,'07-12',,,CHARTER
-75.23581355107946,39.948817219212081,1014,126516457,8153,3407,MASTERY CHARTER @ HARRITY,Mastery Charter School at Harrity,5601 CHRISTIAN ST,19143,215-471-2908,,ELEMENTARYMIDDLE,'00-08',,,CHARTER
-75.231292302613085,39.985607713182524,1015,126519433,8152,3408,MASTERY CHARTER @ MANN,Mastery Charter School at Mann,5376 W BERKS ST,19131,215-581-5516,,ELEMENTARY,'00-06',,,CHARTER
-75.161423999409848,40.048207999767421,1016,126518795,3721,3426,MASTERY CHARTER @ PASTORIUS,Mastery Charter School at Pastorius,5650 SPRAGUE ST,19138,215-951-5689,,ELEMENTARYMIDDLE,'00-08',,,CHARTER
-75.180708729801637,40.032136251394306,1017,151514721,7961,3393,MASTERY CHARTER @ PICKETT,Mastery Charter School at Pickett,5700 WAYNE AVE,19144,215-866-9000,,MIDDLEHIGH,'06-12',,,CHARTER
-75.073891999768136,40.019785999961137,1018,126517286,8151,3409,MASTERY CHARTER @ SMEDLEY,Mastery Charter School at Smedley,1790 BRIDGE ST,19124,215-537-2523,,ELEMENTARY,'00-06',,,CHARTER
-75.166726326986719,40.03320394531179,1019,126518118,3731,3427,MASTERY CHARTER @ WISTER,Mastery Charter School at Wister,67 E BRINGHURST ST,19144,215-951-4003,,ELEMENTARY,'00-05',,,CHARTER
-75.147014191908241,39.949526981411715,1020,126510002,7678,3361,MASTERY CHARTER-LENFEST CAMPUS,Mastery Charter School at Lenfest,35 S 4TH ST,19106,215-922-1902,,MIDDLEHIGH,'07-12',,,CHARTER
-75.228437000721826,39.97579899972034,1021,126510022,7909,3383,MASTERY CHARTER-SHOEMAKER,Mastery Charter School at Shoemaker,5301 MEDIA ST,19131,267-296-7111,,MIDDLEHIGH,'07-12',,,CHARTER
-75.163646751339286,39.914670959496405,1022,126510023,7910,3385,MASTERY CHARTER-THOMAS CAMPUS,Mastery Charter School at Thomas Campus,927 JOHNSTON ST,19148,267-236-0036,,ELEMENTARYMIDDLEHIGH,'00-12',,,CHARTER
-75.160955529734878,39.961151996373331,1023,126513230,7582,3321,"MATH, CIVICS AND SCIENCES","Math, Civics and Sciences Charter School",447 N BROAD ST,19123,215-923-4880,,ELEMENTARYMIDDLEHIGH,'01-12',,,CHARTER
-75.005658000106095,40.113832000405324,1024,126513150,7574,3328,"MATH, SCIENCE AND TECHNOLOGY","Mathematics, Science, and Technology Community Charter School (MaST)",1800 E BYBERRY RD,19116,267-348-1100,,ELEMENTARYMIDDLEHIGH,'00-12',,,CHARTER
-75.112883237872651,39.986168188183299,1025,126519392,8257,3423,MEMPHIS ST. CHARTER @ JP JONES,Memphis Street Academy Charter School at J.P. Jones,2950 MEMPHIS ST,19134,215-291-4709,,MIDDLE,'05-08',,,CHARTER
-75.150354857660162,40.011424416939256,1026,126513000,7546,3312,MULTI-CULTURAL ACADEMY,Multicultural Academy Charter School,3821 N BROAD ST,19140,215-227-0513,,HIGH,'09-12',,,CHARTER
-75.02418699941731,40.035070000323664,1027,126513420,7649,3334,NEW FOUNDATIONS CHARTER SCHOOL,New Foundations Charter School,8001 TORRESDALE AVE,19136,215-624-8100,,ELEMENTARYMIDDLEHIGH,'00-12',,,CHARTER
-75.071167999465075,40.055681000124522,1028,,,3850,NORTHEAST HIGH SCHOOL EOP,Northeast High School EOP,1601 COTTMAN AVE,19111,215-400-3200,,HIGH,'10-12',,,DISTRICT
-75.094726776945464,40.020359992595949,1029,126510019,7856,3386,NORTHWOOD CHARTER SCHOOL,Northwood Academy Charter School,4621 CASTOR AVE,19124,215-289-5606,,ELEMENTARYMIDDLE,'00-08',,,CHARTER
-75.144364456802322,39.958284609048903,1030,,,8070,OIC CADI,OIC CADI,444 N 3RD ST,19123,215-567-2410,,HIGH,'09-12',,,CONTRACTED
-75.156471255203613,40.055949045327644,1031,,,3540,OMBUDSMAN ACCELERATED NORTHWST,Ombudsman Northwest,2111 EASTBURN AVE,19138,215-924-8950,,HIGH,'09-12',,,CONTRACTED
-75.229084929700235,39.922515909878058,1032,,,3810,ONE BRIGHT RAY-ELMWOOD CAMPUS,One Bright Ray - Elmwood Campus,6404 ELMWOOD AVE,19142,215-488-1177,,HIGH,'09-12',,,CONTRACTED
-75.138038729882098,39.994180290753427,1033,,,8190,ONE BRIGHT RAY-FAIRHILL CAMPUS,One Bright Ray - Fairhill Campus,2820 N 4TH ST,19133,215-423-1776,,HIGH,'09-12',,,CONTRACTED
-75.105600960249959,40.00528000042938,1034,,,8890,ONE BRIGHT RAY-SIMPSON CAMPUS,One Bright Ray - Simpson Campus,1142 E ERIE AVE,19124,215-744-6000,,HIGH,'09-12',,,CONTRACTED
-75.136148829676387,39.994280609715787,1035,173515368,7985,3394,PAN AMERICAN ACADEMY CHARTER,Pan American Academy Charter School,2830 N AMERICAN ST,19133,215-425-1212,,ELEMENTARYMIDDLE,'00-08',,,CHARTER
-75.019688999879634,40.032021000138975,1036,,,8540,PENNYPACK HOUSE SCHOOL,Pennypack House School,7901 STATE RD,19136,215-685-7752,,HIGH,'09-12',,,DISTRICT
